Dwelling Identifier,Unit No,Street No,Street Name,Dwelling Suburb,Dwelling Postcode,LGA,full_address,lat,lon,google_maps_link
10001,,8,Cook Place,Taree,2430,Mid-Coast,"8 Cook Place, Taree, 2430, Australia",,,"https://www.google.com/maps/search/?api=1&query=8+Cook+Place,+Taree,+2430,+Australia"
10004,,5,Cook Place,Taree,2430,Mid-Coast,"5 Cook Place, Taree, 2430, Australia",,,"https://www.google.com/maps/search/?api=1&query=5+Cook+Place,+Taree,+2430,+Australia"
10009,,27,Mcblane Street,Weston,2326,Cessnock,"27 Mcblane Street, Weston, 2326, Australia",,,"https://www.google.com/maps/search/?api=1&query=27+Mcblane+Street,+Weston,+2326,+Australia"
10022,,21,Mitchell Close,Cessnock,2325,Cessnock,"21 Mitchell Close, Cessnock, 2325, Australia",,,"https://www.google.com/maps/search/?api=1&query=21+Mitchell+Close,+Cessnock,+2325,+Australia"
10068,,34,Kelso Street,Singleton,2330,Singleton,"34 Kelso Street, Singleton, 2330, Australia",,,"https://www.google.com/maps/search/?api=1&query=34+Kelso+Street,+Singleton,+2330,+Australia"
10105,1,21,Heath Avenue,Tuncurry,2428,Mid-Coast,"21 Heath Avenue, Tuncurry, 2428, Australia",,,"https://www.google.com/maps/search/?api=1&query=21+Heath+Avenue,+Tuncurry,+2428,+Australia"
10126,,11,Coulson Avenue,Cessnock,2325,Cessnock,"11 Coulson Avenue, Cessnock, 2325, Australia",,,"https://www.google.com/maps/search/?api=1&query=11+Coulson+Avenue,+Cessnock,+2325,+Australia"
10128,,1,Lachlan Avenue,Singleton Heights,2330,Singleton,"1 Lachlan Avenue, Singleton Heights, 2330, Australia",,,"https://www.google.com/maps/search/?api=1&query=1+Lachlan+Avenue,+Singleton+Heights,+2330,+Australia"
10129,,2,Teece Street,Weston,2326,Cessnock,"2 Teece Street, Weston, 2326, Australia",,,"https://www.google.com/maps/search/?api=1&query=2+Teece+Street,+Weston,+2326,+Australia"
10136,,3,Bass Close,Singleton Heights,2330,Singleton,"3 Bass Close, Singleton Heights, 2330, Australia",,,"https://www.google.com/maps/search/?api=1&query=3+Bass+Close,+Singleton+Heights,+2330,+Australia"
10139,,7,Brown Street,Cessnock,2325,Cessnock,"7 Brown Street, Cessnock, 2325, Australia",,,"https://www.google.com/maps/search/?api=1&query=7+Brown+Street,+Cessnock,+2325,+Australia"
10172,,27,Clare Street,Cessnock,2325,Cessnock,"27 Clare Street, Cessnock, 2325, Australia",,,"https://www.google.com/maps/search/?api=1&query=27+Clare+Street,+Cessnock,+2325,+Australia"
10182,,3,Wattle Close,Gloucester,2422,Mid-Coast,"3 Wattle Close, Gloucester, 2422, Australia",,,"https://www.google.com/maps/search/?api=1&query=3+Wattle+Close,+Gloucester,+2422,+Australia"
10184,,40,Stockyard Circuit,Wingham,2429,Mid-Coast,"40 Stockyard Circuit, Wingham, 2429, Australia",,,"https://www.google.com/maps/search/?api=1&query=40+Stockyard+Circuit,+Wingham,+2429,+Australia"
10189,,1,Strathmore Place,Taree,2430,Mid-Coast,"1 Strathmore Place, Taree, 2430, Australia",,,"https://www.google.com/maps/search/?api=1&query=1+Strathmore+Place,+Taree,+2430,+Australia"
10193,,48,Blaxland Avenue,Singleton Heights,2330,Singleton,"48 Blaxland Avenue, Singleton Heights, 2330, Australia",,,"https://www.google.com/maps/search/?api=1&query=48+Blaxland+Avenue,+Singleton+Heights,+2330,+Australia"
10197,,11,Frances Street,Gloucester,2422,Mid-Coast,"11 Frances Street, Gloucester, 2422, Australia",,,"https://www.google.com/maps/search/?api=1&query=11+Frances+Street,+Gloucester,+2422,+Australia"
10212,12,1-11,Heath Avenue,Tuncurry,2428,Mid-Coast,"1-11 Heath Avenue, Tuncurry, 2428, Australia",,,"https://www.google.com/maps/search/?api=1&query=1-11+Heath+Avenue,+Tuncurry,+2428,+Australia"
10237,,10,Warrina Close,Taree,2430,Mid-Coast,"10 Warrina Close, Taree, 2430, Australia",,,"https://www.google.com/maps/search/?api=1&query=10+Warrina+Close,+Taree,+2430,+Australia"
10240,,26,Teece Street,Weston,2326,Cessnock,"26 Teece Street, Weston, 2326, Australia",,,"https://www.google.com/maps/search/?api=1&query=26+Teece+Street,+Weston,+2326,+Australia"
10242,,10,Casson Avenue,Cessnock,2325,Cessnock,"10 Casson Avenue, Cessnock, 2325, Australia",,,"https://www.google.com/maps/search/?api=1&query=10+Casson+Avenue,+Cessnock,+2325,+Australia"
10250,,46,Kanangra Drive,Taree,2430,Mid-Coast,"46 Kanangra Drive, Taree, 2430, Australia",,,"https://www.google.com/maps/search/?api=1&query=46+Kanangra+Drive,+Taree,+2430,+Australia"
10284,,8,Irvine Street,Wingham,2429,Mid-Coast,"8 Irvine Street, Wingham, 2429, Australia",,,"https://www.google.com/maps/search/?api=1&query=8+Irvine+Street,+Wingham,+2429,+Australia"
10286,,16,Dalmeny Close,Hunterview,2330,Singleton,"16 Dalmeny Close, Hunterview, 2330, Australia",,,"https://www.google.com/maps/search/?api=1&query=16+Dalmeny+Close,+Hunterview,+2330,+Australia"
10292,,3,Wentworth Avenue,Singleton Heights,2330,Singleton,"3 Wentworth Avenue, Singleton Heights, 2330, Australia",,,"https://www.google.com/maps/search/?api=1&query=3+Wentworth+Avenue,+Singleton+Heights,+2330,+Australia"
10310,,33,Maclean Street,Cessnock,2325,Cessnock,"33 Maclean Street, Cessnock, 2325, Australia",,,"https://www.google.com/maps/search/?api=1&query=33+Maclean+Street,+Cessnock,+2325,+Australia"
10312,5,25,North Street,Tuncurry,2428,Mid-Coast,"25 North Street, Tuncurry, 2428, Australia",,,"https://www.google.com/maps/search/?api=1&query=25+North+Street,+Tuncurry,+2428,+Australia"
10320,,20,Bright Street,Forster,2428,Mid-Coast,"20 Bright Street, Forster, 2428, Australia",,,"https://www.google.com/maps/search/?api=1&query=20+Bright+Street,+Forster,+2428,+Australia"
10335,,90,Fourth Street,Weston,2326,Cessnock,"90 Fourth Street, Weston, 2326, Australia",,,"https://www.google.com/maps/search/?api=1&query=90+Fourth+Street,+Weston,+2326,+Australia"
10340,,11,Mackellar Street,Cessnock,2325,Cessnock,"11 Mackellar Street, Cessnock, 2325, Australia",,,"https://www.google.com/maps/search/?api=1&query=11+Mackellar+Street,+Cessnock,+2325,+Australia"
10346,,32,Divide Street,Forster,2428,Mid-Coast,"32 Divide Street, Forster, 2428, Australia",,,"https://www.google.com/maps/search/?api=1&query=32+Divide+Street,+Forster,+2428,+Australia"
10349,,8,Casson Avenue,Cessnock,2325,Cessnock,"8 Casson Avenue, Cessnock, 2325, Australia",,,"https://www.google.com/maps/search/?api=1&query=8+Casson+Avenue,+Cessnock,+2325,+Australia"
10361,,112,Alkira Avenue,Cessnock,2325,Cessnock,"112 Alkira Avenue, Cessnock, 2325, Australia",,,"https://www.google.com/maps/search/?api=1&query=112+Alkira+Avenue,+Cessnock,+2325,+Australia"
10372,,3,Coulson Avenue,Cessnock,2325,Cessnock,"3 Coulson Avenue, Cessnock, 2325, Australia",,,"https://www.google.com/maps/search/?api=1&query=3+Coulson+Avenue,+Cessnock,+2325,+Australia"
10374,,28,Wentworth Avenue,Singleton Heights,2330,Singleton,"28 Wentworth Avenue, Singleton Heights, 2330, Australia",,,"https://www.google.com/maps/search/?api=1&query=28+Wentworth+Avenue,+Singleton+Heights,+2330,+Australia"
10410,,5,Cook Street,Gloucester,2422,Mid-Coast,"5 Cook Street, Gloucester, 2422, Australia",,,"https://www.google.com/maps/search/?api=1&query=5+Cook+Street,+Gloucester,+2422,+Australia"
1043,,19,Girraween Street,Buff Point,2262,Central Coast (NSW),"19 Girraween Street, Buff Point, 2262, Australia",,,"https://www.google.com/maps/search/?api=1&query=19+Girraween+Street,+Buff+Point,+2262,+Australia"
10442,,33,Ronald Road,Taree,2430,Mid-Coast,"33 Ronald Road, Taree, 2430, Australia",,,"https://www.google.com/maps/search/?api=1&query=33+Ronald+Road,+Taree,+2430,+Australia"
10467,,22,Coulson Avenue,Cessnock,2325,Cessnock,"22 Coulson Avenue, Cessnock, 2325, Australia",,,"https://www.google.com/maps/search/?api=1&query=22+Coulson+Avenue,+Cessnock,+2325,+Australia"
10479,,8,Blaxland Avenue,Singleton Heights,2330,Singleton,"8 Blaxland Avenue, Singleton Heights, 2330, Australia",,,"https://www.google.com/maps/search/?api=1&query=8+Blaxland+Avenue,+Singleton+Heights,+2330,+Australia"
10488,,78,Fourth Street,Weston,2326,Cessnock,"78 Fourth Street, Weston, 2326, Australia",,,"https://www.google.com/maps/search/?api=1&query=78+Fourth+Street,+Weston,+2326,+Australia"
10493,,40,Illingari Circuit,Taree,2430,Mid-Coast,"40 Illingari Circuit, Taree, 2430, Australia",,,"https://www.google.com/maps/search/?api=1&query=40+Illingari+Circuit,+Taree,+2430,+Australia"
10496,,73,Stokes Circuit,Taree,2430,Mid-Coast,"73 Stokes Circuit, Taree, 2430, Australia",,,"https://www.google.com/maps/search/?api=1&query=73+Stokes+Circuit,+Taree,+2430,+Australia"
10522,,7,Thorp Close,Cessnock,2325,Cessnock,"7 Thorp Close, Cessnock, 2325, Australia",,,"https://www.google.com/maps/search/?api=1&query=7+Thorp+Close,+Cessnock,+2325,+Australia"
10530,,14,Bushland Drive,Taree,2430,Mid-Coast,"14 Bushland Drive, Taree, 2430, Australia",,,"https://www.google.com/maps/search/?api=1&query=14+Bushland+Drive,+Taree,+2430,+Australia"
10550,,12,Tulloch Close,Singleton,2330,Singleton,"12 Tulloch Close, Singleton, 2330, Australia",,,"https://www.google.com/maps/search/?api=1&query=12+Tulloch+Close,+Singleton,+2330,+Australia"
10556,,4,Frances Street,Gloucester,2422,Mid-Coast,"4 Frances Street, Gloucester, 2422, Australia",,,"https://www.google.com/maps/search/?api=1&query=4+Frances+Street,+Gloucester,+2422,+Australia"
10566,,15,Brown Street,Cessnock,2325,Cessnock,"15 Brown Street, Cessnock, 2325, Australia",,,"https://www.google.com/maps/search/?api=1&query=15+Brown+Street,+Cessnock,+2325,+Australia"
10587,,115,Fourth Street,Weston,2326,Cessnock,"115 Fourth Street, Weston, 2326, Australia",,,"https://www.google.com/maps/search/?api=1&query=115+Fourth+Street,+Weston,+2326,+Australia"
10589,,30,Avon Street,Gloucester,2422,Mid-Coast,"30 Avon Street, Gloucester, 2422, Australia",,,"https://www.google.com/maps/search/?api=1&query=30+Avon+Street,+Gloucester,+2422,+Australia"
10592,,62-64,Kanangra Drive,Taree,2430,Mid-Coast,"62-64 Kanangra Drive, Taree, 2430, Australia",,,"https://www.google.com/maps/search/?api=1&query=62-64+Kanangra+Drive,+Taree,+2430,+Australia"
10596,2,4,Yango Street,Cessnock,2325,Cessnock,"4 Yango Street, Cessnock, 2325, Australia",,,"https://www.google.com/maps/search/?api=1&query=4+Yango+Street,+Cessnock,+2325,+Australia"
10603,1,4,Yango Street,Cessnock,2325,Cessnock,"4 Yango Street, Cessnock, 2325, Australia",,,"https://www.google.com/maps/search/?api=1&query=4+Yango+Street,+Cessnock,+2325,+Australia"
10606,,4,Nelson Street,Cessnock,2325,Cessnock,"4 Nelson Street, Cessnock, 2325, Australia",,,"https://www.google.com/maps/search/?api=1&query=4+Nelson+Street,+Cessnock,+2325,+Australia"
10618,,27,Wermol Street,Kurri Kurri,2327,Cessnock,"27 Wermol Street, Kurri Kurri, 2327, Australia",,,"https://www.google.com/maps/search/?api=1&query=27+Wermol+Street,+Kurri+Kurri,+2327,+Australia"
10624,,21,Wilkinson Boulevard,Hunterview,2330,Singleton,"21 Wilkinson Boulevard, Hunterview, 2330, Australia",,,"https://www.google.com/maps/search/?api=1&query=21+Wilkinson+Boulevard,+Hunterview,+2330,+Australia"
10631,,15,Buckland Avenue,Cessnock,2325,Cessnock,"15 Buckland Avenue, Cessnock, 2325, Australia",,,"https://www.google.com/maps/search/?api=1&query=15+Buckland+Avenue,+Cessnock,+2325,+Australia"
10634,,31,Benara Crescent,Forster,2428,Mid-Coast,"31 Benara Crescent, Forster, 2428, Australia",,,"https://www.google.com/maps/search/?api=1&query=31+Benara+Crescent,+Forster,+2428,+Australia"
10635,,4,Allumba Close,Taree,2430,Mid-Coast,"4 Allumba Close, Taree, 2430, Australia",,,"https://www.google.com/maps/search/?api=1&query=4+Allumba+Close,+Taree,+2430,+Australia"
10644,,6,Bushland Drive,Taree,2430,Mid-Coast,"6 Bushland Drive, Taree, 2430, Australia",,,"https://www.google.com/maps/search/?api=1&query=6+Bushland+Drive,+Taree,+2430,+Australia"
10658,,18,Wills Close,Singleton Heights,2330,Singleton,"18 Wills Close, Singleton Heights, 2330, Australia",,,"https://www.google.com/maps/search/?api=1&query=18+Wills+Close,+Singleton+Heights,+2330,+Australia"
10659,,6,Coulson Avenue,Cessnock,2325,Cessnock,"6 Coulson Avenue, Cessnock, 2325, Australia",,,"https://www.google.com/maps/search/?api=1&query=6+Coulson+Avenue,+Cessnock,+2325,+Australia"
10671,,10,Pine Close,Gloucester,2422,Mid-Coast,"10 Pine Close, Gloucester, 2422, Australia",,,"https://www.google.com/maps/search/?api=1&query=10+Pine+Close,+Gloucester,+2422,+Australia"
10686,,117,Fourth Street,Weston,2326,Cessnock,"117 Fourth Street, Weston, 2326, Australia",,,"https://www.google.com/maps/search/?api=1&query=117+Fourth+Street,+Weston,+2326,+Australia"
10690,,47,Orchard Avenue,Singleton,2330,Singleton,"47 Orchard Avenue, Singleton, 2330, Australia",,,"https://www.google.com/maps/search/?api=1&query=47+Orchard+Avenue,+Singleton,+2330,+Australia"
10763,,18,Davies Close,Weston,2326,Cessnock,"18 Davies Close, Weston, 2326, Australia",,,"https://www.google.com/maps/search/?api=1&query=18+Davies+Close,+Weston,+2326,+Australia"
10775,,4,Brown Close,Singleton,2330,Singleton,"4 Brown Close, Singleton, 2330, Australia",,,"https://www.google.com/maps/search/?api=1&query=4+Brown+Close,+Singleton,+2330,+Australia"
10800,,20,Andrew Close,Taree,2430,Mid-Coast,"20 Andrew Close, Taree, 2430, Australia",,,"https://www.google.com/maps/search/?api=1&query=20+Andrew+Close,+Taree,+2430,+Australia"
10807,,63,Buchan Avenue,Singleton,2330,Singleton,"63 Buchan Avenue, Singleton, 2330, Australia",,,"https://www.google.com/maps/search/?api=1&query=63+Buchan+Avenue,+Singleton,+2330,+Australia"
10809,,37,Valerie Street,Taree,2430,Mid-Coast,"37 Valerie Street, Taree, 2430, Australia",,,"https://www.google.com/maps/search/?api=1&query=37+Valerie+Street,+Taree,+2430,+Australia"
10813,,4,Kingston Close,Singleton,2330,Singleton,"4 Kingston Close, Singleton, 2330, Australia",,,"https://www.google.com/maps/search/?api=1&query=4+Kingston+Close,+Singleton,+2330,+Australia"
10832,,30,Smith Street,Taree,2430,Mid-Coast,"30 Smith Street, Taree, 2430, Australia",,,"https://www.google.com/maps/search/?api=1&query=30+Smith+Street,+Taree,+2430,+Australia"
10859,,15,Moon Street,Wingham,2429,Mid-Coast,"15 Moon Street, Wingham, 2429, Australia",,,"https://www.google.com/maps/search/?api=1&query=15+Moon+Street,+Wingham,+2429,+Australia"
10861,,14,Gwenneth Avenue,Taree,2430,Mid-Coast,"14 Gwenneth Avenue, Taree, 2430, Australia",,,"https://www.google.com/maps/search/?api=1&query=14+Gwenneth+Avenue,+Taree,+2430,+Australia"
10867,,1,Gwenneth Avenue,Taree,2430,Mid-Coast,"1 Gwenneth Avenue, Taree, 2430, Australia",,,"https://www.google.com/maps/search/?api=1&query=1+Gwenneth+Avenue,+Taree,+2430,+Australia"
10879,,25,Hooke Street,Taree,2430,Mid-Coast,"25 Hooke Street, Taree, 2430, Australia",,,"https://www.google.com/maps/search/?api=1&query=25+Hooke+Street,+Taree,+2430,+Australia"
10886,,4,Blaxland Avenue,Singleton Heights,2330,Singleton,"4 Blaxland Avenue, Singleton Heights, 2330, Australia",,,"https://www.google.com/maps/search/?api=1&query=4+Blaxland+Avenue,+Singleton+Heights,+2330,+Australia"
10895,,6,Wills Close,Singleton Heights,2330,Singleton,"6 Wills Close, Singleton Heights, 2330, Australia",,,"https://www.google.com/maps/search/?api=1&query=6+Wills+Close,+Singleton+Heights,+2330,+Australia"
10915,,22,Wills Close,Singleton Heights,2330,Singleton,"22 Wills Close, Singleton Heights, 2330, Australia",,,"https://www.google.com/maps/search/?api=1&query=22+Wills+Close,+Singleton+Heights,+2330,+Australia"
10920,,9,Ronald Road,Taree,2430,Mid-Coast,"9 Ronald Road, Taree, 2430, Australia",,,"https://www.google.com/maps/search/?api=1&query=9+Ronald+Road,+Taree,+2430,+Australia"
10933,,16,Maclean Street,Cessnock,2325,Cessnock,"16 Maclean Street, Cessnock, 2325, Australia",,,"https://www.google.com/maps/search/?api=1&query=16+Maclean+Street,+Cessnock,+2325,+Australia"
10934,,1,Duguid Close,Cessnock,2325,Cessnock,"1 Duguid Close, Cessnock, 2325, Australia",,,"https://www.google.com/maps/search/?api=1&query=1+Duguid+Close,+Cessnock,+2325,+Australia"
10939,,1,Blaxland Avenue,Singleton Heights,2330,Singleton,"1 Blaxland Avenue, Singleton Heights, 2330, Australia",,,"https://www.google.com/maps/search/?api=1&query=1+Blaxland+Avenue,+Singleton+Heights,+2330,+Australia"
10972,,9,Galloway Street,Kurri Kurri,2327,Cessnock,"9 Galloway Street, Kurri Kurri, 2327, Australia",,,"https://www.google.com/maps/search/?api=1&query=9+Galloway+Street,+Kurri+Kurri,+2327,+Australia"
10988,,8,Frances Street,Gloucester,2422,Mid-Coast,"8 Frances Street, Gloucester, 2422, Australia",,,"https://www.google.com/maps/search/?api=1&query=8+Frances+Street,+Gloucester,+2422,+Australia"
10996,,38,Kelso Street,Singleton,2330,Singleton,"38 Kelso Street, Singleton, 2330, Australia",,,"https://www.google.com/maps/search/?api=1&query=38+Kelso+Street,+Singleton,+2330,+Australia"
11006,,17,Brown Street,Cessnock,2325,Cessnock,"17 Brown Street, Cessnock, 2325, Australia",,,"https://www.google.com/maps/search/?api=1&query=17+Brown+Street,+Cessnock,+2325,+Australia"
11022,,7,Barton Street,Taree,2430,Mid-Coast,"7 Barton Street, Taree, 2430, Australia",,,"https://www.google.com/maps/search/?api=1&query=7+Barton+Street,+Taree,+2430,+Australia"
11049,,26,Jones Street,Dungog,2420,Dungog,"26 Jones Street, Dungog, 2420, Australia",,,"https://www.google.com/maps/search/?api=1&query=26+Jones+Street,+Dungog,+2420,+Australia"
11053,,36,O'Toole Street,Weston,2326,Cessnock,"36 O'Toole Street, Weston, 2326, Australia",,,"https://www.google.com/maps/search/?api=1&query=36+O'Toole+Street,+Weston,+2326,+Australia"
11058,,34,Railway Parade,Kurri Kurri,2327,Cessnock,"34 Railway Parade, Kurri Kurri, 2327, Australia",,,"https://www.google.com/maps/search/?api=1&query=34+Railway+Parade,+Kurri+Kurri,+2327,+Australia"
11059,,2,Hume Close,Singleton Heights,2330,Singleton,"2 Hume Close, Singleton Heights, 2330, Australia",,,"https://www.google.com/maps/search/?api=1&query=2+Hume+Close,+Singleton+Heights,+2330,+Australia"
11079,,3,Alkira Avenue,Cessnock,2325,Cessnock,"3 Alkira Avenue, Cessnock, 2325, Australia",,,"https://www.google.com/maps/search/?api=1&query=3+Alkira+Avenue,+Cessnock,+2325,+Australia"
11090,,15,Thorp Close,Cessnock,2325,Cessnock,"15 Thorp Close, Cessnock, 2325, Australia",,,"https://www.google.com/maps/search/?api=1&query=15+Thorp+Close,+Cessnock,+2325,+Australia"
11097,,1,Mitchell Avenue,Singleton Heights,2330,Singleton,"1 Mitchell Avenue, Singleton Heights, 2330, Australia",,,"https://www.google.com/maps/search/?api=1&query=1+Mitchell+Avenue,+Singleton+Heights,+2330,+Australia"
1110,,18,Highland Cresent,Hamlyn Terrace,2259,Central Coast (NSW),"18 Highland Cresent, Hamlyn Terrace, 2259, Australia",,,"https://www.google.com/maps/search/?api=1&query=18+Highland+Cresent,+Hamlyn+Terrace,+2259,+Australia"
11105,,17,Wakehurst Crescent,Singleton Heights,2330,Singleton,"17 Wakehurst Crescent, Singleton Heights, 2330, Australia",,,"https://www.google.com/maps/search/?api=1&query=17+Wakehurst+Crescent,+Singleton+Heights,+2330,+Australia"
11124,,15,Saxton Street,Kurri Kurri,2327,Cessnock,"15 Saxton Street, Kurri Kurri, 2327, Australia",,,"https://www.google.com/maps/search/?api=1&query=15+Saxton+Street,+Kurri+Kurri,+2327,+Australia"
11148,,8,Strathmore Place,Taree,2430,Mid-Coast,"8 Strathmore Place, Taree, 2430, Australia",,,"https://www.google.com/maps/search/?api=1&query=8+Strathmore+Place,+Taree,+2430,+Australia"
1115,,2,Phyllis Avenue,Kanwal,2259,Central Coast (NSW),"2 Phyllis Avenue, Kanwal, 2259, Australia",,,"https://www.google.com/maps/search/?api=1&query=2+Phyllis+Avenue,+Kanwal,+2259,+Australia"
11158,,11,Galloway Street,Kurri Kurri,2327,Cessnock,"11 Galloway Street, Kurri Kurri, 2327, Australia",,,"https://www.google.com/maps/search/?api=1&query=11+Galloway+Street,+Kurri+Kurri,+2327,+Australia"
1116,,48,Walker Avenue,Kanwal,2259,Central Coast (NSW),"48 Walker Avenue, Kanwal, 2259, Australia",,,"https://www.google.com/maps/search/?api=1&query=48+Walker+Avenue,+Kanwal,+2259,+Australia"
11161,,19,Pindari Crescent,Taree,2430,Mid-Coast,"19 Pindari Crescent, Taree, 2430, Australia",,,"https://www.google.com/maps/search/?api=1&query=19+Pindari+Crescent,+Taree,+2430,+Australia"
11168,,22,Nuwarra Circuit,Forster,2428,Mid-Coast,"22 Nuwarra Circuit, Forster, 2428, Australia",,,"https://www.google.com/maps/search/?api=1&query=22+Nuwarra+Circuit,+Forster,+2428,+Australia"
11183,,70,Kanangra Drive,Taree,2430,Mid-Coast,"70 Kanangra Drive, Taree, 2430, Australia",,,"https://www.google.com/maps/search/?api=1&query=70+Kanangra+Drive,+Taree,+2430,+Australia"
11186,,15,Mitchell Close,Cessnock,2325,Cessnock,"15 Mitchell Close, Cessnock, 2325, Australia",,,"https://www.google.com/maps/search/?api=1&query=15+Mitchell+Close,+Cessnock,+2325,+Australia"
11223,,12,Blaxland Avenue,Singleton Heights,2330,Singleton,"12 Blaxland Avenue, Singleton Heights, 2330, Australia",,,"https://www.google.com/maps/search/?api=1&query=12+Blaxland+Avenue,+Singleton+Heights,+2330,+Australia"
11240,,36,Francis Street,Cessnock,2325,Cessnock,"36 Francis Street, Cessnock, 2325, Australia",,,"https://www.google.com/maps/search/?api=1&query=36+Francis+Street,+Cessnock,+2325,+Australia"
11255,,8A,Bahtoo Parade,Taree,2430,Mid-Coast,"8A Bahtoo Parade, Taree, 2430, Australia",,,"https://www.google.com/maps/search/?api=1&query=8A+Bahtoo+Parade,+Taree,+2430,+Australia"
11276,,13,Wakehurst Crescent,Singleton Heights,2330,Singleton,"13 Wakehurst Crescent, Singleton Heights, 2330, Australia",,,"https://www.google.com/maps/search/?api=1&query=13+Wakehurst+Crescent,+Singleton+Heights,+2330,+Australia"
11282,,52,Blaxland Avenue,Singleton Heights,2330,Singleton,"52 Blaxland Avenue, Singleton Heights, 2330, Australia",,,"https://www.google.com/maps/search/?api=1&query=52+Blaxland+Avenue,+Singleton+Heights,+2330,+Australia"
11286,,17,Saxton Street,Kurri Kurri,2327,Cessnock,"17 Saxton Street, Kurri Kurri, 2327, Australia",,,"https://www.google.com/maps/search/?api=1&query=17+Saxton+Street,+Kurri+Kurri,+2327,+Australia"
11293,,5,Cedar Grove,Forster,2428,Mid-Coast,"5 Cedar Grove, Forster, 2428, Australia",,,"https://www.google.com/maps/search/?api=1&query=5+Cedar+Grove,+Forster,+2428,+Australia"
11303,,66,Blaxland Avenue,Singleton Heights,2330,Singleton,"66 Blaxland Avenue, Singleton Heights, 2330, Australia",,,"https://www.google.com/maps/search/?api=1&query=66+Blaxland+Avenue,+Singleton+Heights,+2330,+Australia"
11309,,33,Valerie Street,Taree,2430,Mid-Coast,"33 Valerie Street, Taree, 2430, Australia",,,"https://www.google.com/maps/search/?api=1&query=33+Valerie+Street,+Taree,+2430,+Australia"
11339,1,1-11,Heath Avenue,Tuncurry,2428,Mid-Coast,"1-11 Heath Avenue, Tuncurry, 2428, Australia",,,"https://www.google.com/maps/search/?api=1&query=1-11+Heath+Avenue,+Tuncurry,+2428,+Australia"
11347,,6,Casson Avenue,Cessnock,2325,Cessnock,"6 Casson Avenue, Cessnock, 2325, Australia",,,"https://www.google.com/maps/search/?api=1&query=6+Casson+Avenue,+Cessnock,+2325,+Australia"
11360,,18,Barton Street,Taree,2430,Mid-Coast,"18 Barton Street, Taree, 2430, Australia",,,"https://www.google.com/maps/search/?api=1&query=18+Barton+Street,+Taree,+2430,+Australia"
11365,,27,Kennedy Street,Singleton,2330,Singleton,"27 Kennedy Street, Singleton, 2330, Australia",,,"https://www.google.com/maps/search/?api=1&query=27+Kennedy+Street,+Singleton,+2330,+Australia"
11367,,11,Valerie Street,Taree,2430,Mid-Coast,"11 Valerie Street, Taree, 2430, Australia",,,"https://www.google.com/maps/search/?api=1&query=11+Valerie+Street,+Taree,+2430,+Australia"
11379,,13,Tulloch Close,Singleton,2330,Singleton,"13 Tulloch Close, Singleton, 2330, Australia",,,"https://www.google.com/maps/search/?api=1&query=13+Tulloch+Close,+Singleton,+2330,+Australia"
11380,,42,Kelso Street,Singleton,2330,Singleton,"42 Kelso Street, Singleton, 2330, Australia",,,"https://www.google.com/maps/search/?api=1&query=42+Kelso+Street,+Singleton,+2330,+Australia"
11385,,50,Warrina Close,Taree,2430,Mid-Coast,"50 Warrina Close, Taree, 2430, Australia",,,"https://www.google.com/maps/search/?api=1&query=50+Warrina+Close,+Taree,+2430,+Australia"
11393,,9,Brown Street,Cessnock,2325,Cessnock,"9 Brown Street, Cessnock, 2325, Australia",,,"https://www.google.com/maps/search/?api=1&query=9+Brown+Street,+Cessnock,+2325,+Australia"
11397,,17,Wentworth Avenue,Singleton Heights,2330,Singleton,"17 Wentworth Avenue, Singleton Heights, 2330, Australia",,,"https://www.google.com/maps/search/?api=1&query=17+Wentworth+Avenue,+Singleton+Heights,+2330,+Australia"
11425,,8,Nelson Street,Cessnock,2325,Cessnock,"8 Nelson Street, Cessnock, 2325, Australia",,,"https://www.google.com/maps/search/?api=1&query=8+Nelson+Street,+Cessnock,+2325,+Australia"
11432,,12,Cook Place,Taree,2430,Mid-Coast,"12 Cook Place, Taree, 2430, Australia",,,"https://www.google.com/maps/search/?api=1&query=12+Cook+Place,+Taree,+2430,+Australia"
11438,,9,Mackellar Street,Cessnock,2325,Cessnock,"9 Mackellar Street, Cessnock, 2325, Australia",,,"https://www.google.com/maps/search/?api=1&query=9+Mackellar+Street,+Cessnock,+2325,+Australia"
11450,,5,Thorp Close,Cessnock,2325,Cessnock,"5 Thorp Close, Cessnock, 2325, Australia",,,"https://www.google.com/maps/search/?api=1&query=5+Thorp+Close,+Cessnock,+2325,+Australia"
11465,,79,Hospital Road,Weston,2326,Cessnock,"79 Hospital Road, Weston, 2326, Australia",,,"https://www.google.com/maps/search/?api=1&query=79+Hospital+Road,+Weston,+2326,+Australia"
11466,,4,Pindari Crescent,Taree,2430,Mid-Coast,"4 Pindari Crescent, Taree, 2430, Australia",,,"https://www.google.com/maps/search/?api=1&query=4+Pindari+Crescent,+Taree,+2430,+Australia"
11469,,1,Galloway Street,Kurri Kurri,2327,Cessnock,"1 Galloway Street, Kurri Kurri, 2327, Australia",,,"https://www.google.com/maps/search/?api=1&query=1+Galloway+Street,+Kurri+Kurri,+2327,+Australia"
11482,,8,Saxton Street,Kurri Kurri,2327,Cessnock,"8 Saxton Street, Kurri Kurri, 2327, Australia",,,"https://www.google.com/maps/search/?api=1&query=8+Saxton+Street,+Kurri+Kurri,+2327,+Australia"
11532,,15,O'Toole Street,Weston,2326,Cessnock,"15 O'Toole Street, Weston, 2326, Australia",,,"https://www.google.com/maps/search/?api=1&query=15+O'Toole+Street,+Weston,+2326,+Australia"
11536,,11,Moon Street,Wingham,2429,Mid-Coast,"11 Moon Street, Wingham, 2429, Australia",,,"https://www.google.com/maps/search/?api=1&query=11+Moon+Street,+Wingham,+2429,+Australia"
11544,,20,Brown Street,Cessnock,2325,Cessnock,"20 Brown Street, Cessnock, 2325, Australia",,,"https://www.google.com/maps/search/?api=1&query=20+Brown+Street,+Cessnock,+2325,+Australia"
11564,,5,Oxley Avenue,Singleton Heights,2330,Singleton,"5 Oxley Avenue, Singleton Heights, 2330, Australia",,,"https://www.google.com/maps/search/?api=1&query=5+Oxley+Avenue,+Singleton+Heights,+2330,+Australia"
11579,,20,Hughes Street,Taree,2430,Mid-Coast,"20 Hughes Street, Taree, 2430, Australia",,,"https://www.google.com/maps/search/?api=1&query=20+Hughes+Street,+Taree,+2430,+Australia"
11605,,19,Wakehurst Crescent,Singleton Heights,2330,Singleton,"19 Wakehurst Crescent, Singleton Heights, 2330, Australia",,,"https://www.google.com/maps/search/?api=1&query=19+Wakehurst+Crescent,+Singleton+Heights,+2330,+Australia"
11617,,111,Fourth Street,Weston,2326,Cessnock,"111 Fourth Street, Weston, 2326, Australia",,,"https://www.google.com/maps/search/?api=1&query=111+Fourth+Street,+Weston,+2326,+Australia"
11631,,6,Brown Street,Cessnock,2325,Cessnock,"6 Brown Street, Cessnock, 2325, Australia",,,"https://www.google.com/maps/search/?api=1&query=6+Brown+Street,+Cessnock,+2325,+Australia"
11639,,45,Mudford Street,Taree,2430,Mid-Coast,"45 Mudford Street, Taree, 2430, Australia",,,"https://www.google.com/maps/search/?api=1&query=45+Mudford+Street,+Taree,+2430,+Australia"
11656,,38,Railway Parade,Kurri Kurri,2327,Cessnock,"38 Railway Parade, Kurri Kurri, 2327, Australia",,,"https://www.google.com/maps/search/?api=1&query=38+Railway+Parade,+Kurri+Kurri,+2327,+Australia"
11680,,41,Buchan Avenue,Singleton,2330,Singleton,"41 Buchan Avenue, Singleton, 2330, Australia",,,"https://www.google.com/maps/search/?api=1&query=41+Buchan+Avenue,+Singleton,+2330,+Australia"
11740,,28,Northcott Avenue,Singleton Heights,2330,Singleton,"28 Northcott Avenue, Singleton Heights, 2330, Australia",,,"https://www.google.com/maps/search/?api=1&query=28+Northcott+Avenue,+Singleton+Heights,+2330,+Australia"
11927,,39,Marsden Road,Blue Haven,2262,Central Coast (NSW),"39 Marsden Road, Blue Haven, 2262, Australia",,,"https://www.google.com/maps/search/?api=1&query=39+Marsden+Road,+Blue+Haven,+2262,+Australia"
11931,,5,Askernish Drive,Dubbo,2830,Dubbo,"5 Askernish Drive, Dubbo, 2830, Australia",,,"https://www.google.com/maps/search/?api=1&query=5+Askernish+Drive,+Dubbo,+2830,+Australia"
1196,,131,Emu Drive,San Remo,2262,Central Coast (NSW),"131 Emu Drive, San Remo, 2262, Australia",,,"https://www.google.com/maps/search/?api=1&query=131+Emu+Drive,+San+Remo,+2262,+Australia"
11972,,16-18,Margaret Street,Anna Bay,2316,Port Stephens,"16-18 Margaret Street, Anna Bay, 2316, Australia",,,"https://www.google.com/maps/search/?api=1&query=16-18+Margaret+Street,+Anna+Bay,+2316,+Australia"
11978,,155,Bolwarra Park Drive,Bolwarra Heights,2320,Maitland,"155 Bolwarra Park Drive, Bolwarra Heights, 2320, Australia",,,"https://www.google.com/maps/search/?api=1&query=155+Bolwarra+Park+Drive,+Bolwarra+Heights,+2320,+Australia"
11984,,36,Bowline Close,Corlette,2315,Port Stephens,"36 Bowline Close, Corlette, 2315, Australia",,,"https://www.google.com/maps/search/?api=1&query=36+Bowline+Close,+Corlette,+2315,+Australia"
11990,1,19,Alliance Street,East Maitland,2323,Maitland,"19 Alliance Street, East Maitland, 2323, Australia",,,"https://www.google.com/maps/search/?api=1&query=19+Alliance+Street,+East+Maitland,+2323,+Australia"
11996,,60,Rous Street,East Maitland,2323,Maitland,"60 Rous Street, East Maitland, 2323, Australia",,,"https://www.google.com/maps/search/?api=1&query=60+Rous+Street,+East+Maitland,+2323,+Australia"
12002,,58,Rous Street,East Maitland,2323,Maitland,"58 Rous Street, East Maitland, 2323, Australia",,,"https://www.google.com/maps/search/?api=1&query=58+Rous+Street,+East+Maitland,+2323,+Australia"
12014,,115,Awabakal Drive,Fletcher,2287,Newcastle,"115 Awabakal Drive, Fletcher, 2287, Australia",,,"https://www.google.com/maps/search/?api=1&query=115+Awabakal+Drive,+Fletcher,+2287,+Australia"
12026,House 1,12-14,Beauford Avenue,Maryland,2287,Newcastle,"12-14 Beauford Avenue, Maryland, 2287, Australia",,,"https://www.google.com/maps/search/?api=1&query=12-14+Beauford+Avenue,+Maryland,+2287,+Australia"
12044,,43-45,John Street,Cardiff,2285,Lake Macquarie,"43-45 John Street, Cardiff, 2285, Australia",,,"https://www.google.com/maps/search/?api=1&query=43-45+John+Street,+Cardiff,+2285,+Australia"
12050,,35,Joslin Street,Kotara,2289,Newcastle,"35 Joslin Street, Kotara, 2289, Australia",,,"https://www.google.com/maps/search/?api=1&query=35+Joslin+Street,+Kotara,+2289,+Australia"
12062,,69,Young Road,Lambton,2299,Newcastle,"69 Young Road, Lambton, 2299, Australia",,,"https://www.google.com/maps/search/?api=1&query=69+Young+Road,+Lambton,+2299,+Australia"
12068,,55,Morehead Road,North Lambton,2299,Newcastle,"55 Morehead Road, North Lambton, 2299, Australia",,,"https://www.google.com/maps/search/?api=1&query=55+Morehead+Road,+North+Lambton,+2299,+Australia"
12074,,40,Marton Street,Shortland,2307,Newcastle,"40 Marton Street, Shortland, 2307, Australia",,,"https://www.google.com/maps/search/?api=1&query=40+Marton+Street,+Shortland,+2307,+Australia"
12080,,38,Marton Street,Shortland,2307,Newcastle,"38 Marton Street, Shortland, 2307, Australia",,,"https://www.google.com/maps/search/?api=1&query=38+Marton+Street,+Shortland,+2307,+Australia"
12092,,96,Douglas Street,Stockton,2295,Newcastle,"96 Douglas Street, Stockton, 2295, Australia",,,"https://www.google.com/maps/search/?api=1&query=96+Douglas+Street,+Stockton,+2295,+Australia"
12098,1,5,Martindale Street,Wallsend,2287,Newcastle,"5 Martindale Street, Wallsend, 2287, Australia",,,"https://www.google.com/maps/search/?api=1&query=5+Martindale+Street,+Wallsend,+2287,+Australia"
12104,1,15,Crest Road,Wallsend,2287,Newcastle,"15 Crest Road, Wallsend, 2287, Australia",,,"https://www.google.com/maps/search/?api=1&query=15+Crest+Road,+Wallsend,+2287,+Australia"
12110,,20,Chalmers Road,Wallsend,2287,Newcastle,"20 Chalmers Road, Wallsend, 2287, Australia",,,"https://www.google.com/maps/search/?api=1&query=20+Chalmers+Road,+Wallsend,+2287,+Australia"
12140,,60,Evans Street,Belmont,2280,Lake Macquarie,"60 Evans Street, Belmont, 2280, Australia",,,"https://www.google.com/maps/search/?api=1&query=60+Evans+Street,+Belmont,+2280,+Australia"
12146,,7,Gommera Street,Blacksmiths,2281,Lake Macquarie,"7 Gommera Street, Blacksmiths, 2281, Australia",,,"https://www.google.com/maps/search/?api=1&query=7+Gommera+Street,+Blacksmiths,+2281,+Australia"
12152,,5,Gommera Street,Blacksmiths,2281,Lake Macquarie,"5 Gommera Street, Blacksmiths, 2281, Australia",,,"https://www.google.com/maps/search/?api=1&query=5+Gommera+Street,+Blacksmiths,+2281,+Australia"
12158,House 1,19,Auklet Road,Mount Hutton,2290,Lake Macquarie,"19 Auklet Road, Mount Hutton, 2290, Australia",,,"https://www.google.com/maps/search/?api=1&query=19+Auklet+Road,+Mount+Hutton,+2290,+Australia"
12164,House 2,19,Auklet Road,Mount Hutton,2290,Lake Macquarie,"19 Auklet Road, Mount Hutton, 2290, Australia",,,"https://www.google.com/maps/search/?api=1&query=19+Auklet+Road,+Mount+Hutton,+2290,+Australia"
12170,1,29,Helen Street,Mount Hutton,2290,Lake Macquarie,"29 Helen Street, Mount Hutton, 2290, Australia",,,"https://www.google.com/maps/search/?api=1&query=29+Helen+Street,+Mount+Hutton,+2290,+Australia"
12176,,66,Grand Parade,Bonnells Bay,2264,Lake Macquarie,"66 Grand Parade, Bonnells Bay, 2264, Australia",,,"https://www.google.com/maps/search/?api=1&query=66+Grand+Parade,+Bonnells+Bay,+2264,+Australia"
12201,4,168,Station Street,Bonnells Bay,2264,Lake Macquarie,"168 Station Street, Bonnells Bay, 2264, Australia",,,"https://www.google.com/maps/search/?api=1&query=168+Station+Street,+Bonnells+Bay,+2264,+Australia"
12231,House 2,107,Freemans Drive,Morisset,2264,Lake Macquarie,"107 Freemans Drive, Morisset, 2264, Australia",,,"https://www.google.com/maps/search/?api=1&query=107+Freemans+Drive,+Morisset,+2264,+Australia"
12243,,106,Cherry Street,Ballina,2478,Ballina,"106 Cherry Street, Ballina, 2478, Australia",,,"https://www.google.com/maps/search/?api=1&query=106+Cherry+Street,+Ballina,+2478,+Australia"
12255,,12,Marana Street,Bilambil Heights,2486,Tweed,"12 Marana Street, Bilambil Heights, 2486, Australia",,,"https://www.google.com/maps/search/?api=1&query=12+Marana+Street,+Bilambil+Heights,+2486,+Australia"
12273,,88,Darley Street,Shellharbour (for 1 Illawarra),2259,Shellharbour,"88 Darley Street, Shellharbour (for 1 Illawarra), 2259, Australia",,,"https://www.google.com/maps/search/?api=1&query=88+Darley+Street,+Shellharbour+(for+1+Illawarra),+2259,+Australia"
12297,1,73,Palmer Street,Dubbo,2830,Dubbo,"73 Palmer Street, Dubbo, 2830, Australia",,,"https://www.google.com/maps/search/?api=1&query=73+Palmer+Street,+Dubbo,+2830,+Australia"
12315,,1,Nandina Avenue,Lake Albert,2650,Wagga Wagga,"1 Nandina Avenue, Lake Albert, 2650, Australia",,,"https://www.google.com/maps/search/?api=1&query=1+Nandina+Avenue,+Lake+Albert,+2650,+Australia"
12321,House 1,6-8,Archbold Road,Long Jetty,2261,Central Coast (NSW),"6-8 Archbold Road, Long Jetty, 2261, Australia",,,"https://www.google.com/maps/search/?api=1&query=6-8+Archbold+Road,+Long+Jetty,+2261,+Australia"
12327,House 2,6-8,Archbold Road,Long Jetty,2261,Central Coast (NSW),"6-8 Archbold Road, Long Jetty, 2261, Australia",,,"https://www.google.com/maps/search/?api=1&query=6-8+Archbold+Road,+Long+Jetty,+2261,+Australia"
12534,3,34,Milray Street,Swansea,2281,Lake Macquarie,"34 Milray Street, Swansea, 2281, Australia",,,"https://www.google.com/maps/search/?api=1&query=34+Milray+Street,+Swansea,+2281,+Australia"
12565,,11,Provan Place,Dubbo,2830,Dubbo,"11 Provan Place, Dubbo, 2830, Australia",,,"https://www.google.com/maps/search/?api=1&query=11+Provan+Place,+Dubbo,+2830,+Australia"
12615,,34,Dunheved Circle,Dubbo,2830,Dubbo,"34 Dunheved Circle, Dubbo, 2830, Australia",,,"https://www.google.com/maps/search/?api=1&query=34+Dunheved+Circle,+Dubbo,+2830,+Australia"
1273,,3,Lae Street,Muswellbrook,2333,Muswellbrook,"3 Lae Street, Muswellbrook, 2333, Australia",,,"https://www.google.com/maps/search/?api=1&query=3+Lae+Street,+Muswellbrook,+2333,+Australia"
12822,,20,Vista Parade,Kotara,2289,Newcastle,"20 Vista Parade, Kotara, 2289, Australia",,,"https://www.google.com/maps/search/?api=1&query=20+Vista+Parade,+Kotara,+2289,+Australia"
1323,,32,St Heliers Street,Aberdeen,2336,Upper Hunter,"32 St Heliers Street, Aberdeen, 2336, Australia",,,"https://www.google.com/maps/search/?api=1&query=32+St+Heliers+Street,+Aberdeen,+2336,+Australia"
13266,,44,Maize Street,Tenambit,2323,Maitland,"44 Maize Street, Tenambit, 2323, Australia",,,"https://www.google.com/maps/search/?api=1&query=44+Maize+Street,+Tenambit,+2323,+Australia"
13380,,18,Yulong Street,Dubbo,2830,Dubbo,"18 Yulong Street, Dubbo, 2830, Australia",,,"https://www.google.com/maps/search/?api=1&query=18+Yulong+Street,+Dubbo,+2830,+Australia"
13406,,37A,McKeachie Drive,Aberglassyn,2320,Maitland,"37A McKeachie Drive, Aberglassyn, 2320, Australia",,,"https://www.google.com/maps/search/?api=1&query=37A+McKeachie+Drive,+Aberglassyn,+2320,+Australia"
13426,,8,Farquhar Street,Wingham,2429,Mid-Coast,"8 Farquhar Street, Wingham, 2429, Australia",,,"https://www.google.com/maps/search/?api=1&query=8+Farquhar+Street,+Wingham,+2429,+Australia"
13561,,30,York Street,Dubbo,2830,Dubbo,"30 York Street, Dubbo, 2830, Australia",,,"https://www.google.com/maps/search/?api=1&query=30+York+Street,+Dubbo,+2830,+Australia"
1360,,22,Glover Street,Belmont,2280,Lake Macquarie,"22 Glover Street, Belmont, 2280, Australia",,,"https://www.google.com/maps/search/?api=1&query=22+Glover+Street,+Belmont,+2280,+Australia"
1384,,13,Carr Place,Beresfield,2322,Newcastle,"13 Carr Place, Beresfield, 2322, Australia",,,"https://www.google.com/maps/search/?api=1&query=13+Carr+Place,+Beresfield,+2322,+Australia"
1388,,18,Carr Place,Beresfield,2322,Newcastle,"18 Carr Place, Beresfield, 2322, Australia",,,"https://www.google.com/maps/search/?api=1&query=18+Carr+Place,+Beresfield,+2322,+Australia"
13912,,9,Augusta Close,Heddon Greta,2321,Cessnock,"9 Augusta Close, Heddon Greta, 2321, Australia",,,"https://www.google.com/maps/search/?api=1&query=9+Augusta+Close,+Heddon+Greta,+2321,+Australia"
14005,,58,Ridgeview Drive,Cliftleigh,2321,Cessnock,"58 Ridgeview Drive, Cliftleigh, 2321, Australia",,,"https://www.google.com/maps/search/?api=1&query=58+Ridgeview+Drive,+Cliftleigh,+2321,+Australia"
14127,,40,Chifley Street,Dubbo,2830,Dubbo,"40 Chifley Street, Dubbo, 2830, Australia",,,"https://www.google.com/maps/search/?api=1&query=40+Chifley+Street,+Dubbo,+2830,+Australia"
14195,,31a,Rawmarsh Street,Farley,2320,Maitland,"31a Rawmarsh Street, Farley, 2320, Australia",,,"https://www.google.com/maps/search/?api=1&query=31a+Rawmarsh+Street,+Farley,+2320,+Australia"
14196,,31b,Rawmarsh Street,Farley,2320,Maitland,"31b Rawmarsh Street, Farley, 2320, Australia",,,"https://www.google.com/maps/search/?api=1&query=31b+Rawmarsh+Street,+Farley,+2320,+Australia"
14415,,162,Osborne Road,Mitchelton,4053,Brisbane,"162 Osborne Road, Mitchelton, 4053, Australia",,,"https://www.google.com/maps/search/?api=1&query=162+Osborne+Road,+Mitchelton,+4053,+Australia"
14420,,164,Osborne Road,Mitchelton,4053,Brisbane,"164 Osborne Road, Mitchelton, 4053, Australia",,,"https://www.google.com/maps/search/?api=1&query=164+Osborne+Road,+Mitchelton,+4053,+Australia"
14443,1,34,Mapplewell Circuit,Farley,2320,Maitland,"34 Mapplewell Circuit, Farley, 2320, Australia",,,"https://www.google.com/maps/search/?api=1&query=34+Mapplewell+Circuit,+Farley,+2320,+Australia"
14475,,21,Braye Street,Mayfield,2304,Newcastle,"21 Braye Street, Mayfield, 2304, Australia",,,"https://www.google.com/maps/search/?api=1&query=21+Braye+Street,+Mayfield,+2304,+Australia"
14502,,1292-1294,Mulgoa Road,Mulgoa,2745,Penrith,"1292-1294 Mulgoa Road, Mulgoa, 2745, Australia",,,"https://www.google.com/maps/search/?api=1&query=1292-1294+Mulgoa+Road,+Mulgoa,+2745,+Australia"
14617,,20,Ferrier Drive,Dubbo,2830,Dubbo,"20 Ferrier Drive, Dubbo, 2830, Australia",,,"https://www.google.com/maps/search/?api=1&query=20+Ferrier+Drive,+Dubbo,+2830,+Australia"
14642,,126,Georgia Drive,Hamlyn Terrace,2259,Central Coast (NSW),"126 Georgia Drive, Hamlyn Terrace, 2259, Australia",,,"https://www.google.com/maps/search/?api=1&query=126+Georgia+Drive,+Hamlyn+Terrace,+2259,+Australia"
14643,,132,Georgia Drive,Hamlyn Terrace,2259,Central Coast (NSW),"132 Georgia Drive, Hamlyn Terrace, 2259, Australia",,,"https://www.google.com/maps/search/?api=1&query=132+Georgia+Drive,+Hamlyn+Terrace,+2259,+Australia"
14644,,128,Georgia Drive,Hamlyn Terrace,2259,Central Coast (NSW),"128 Georgia Drive, Hamlyn Terrace, 2259, Australia",,,"https://www.google.com/maps/search/?api=1&query=128+Georgia+Drive,+Hamlyn+Terrace,+2259,+Australia"
14695,,20,Softwood Street,Spring Farm,2570,Camden,"20 Softwood Street, Spring Farm, 2570, Australia",,,"https://www.google.com/maps/search/?api=1&query=20+Softwood+Street,+Spring+Farm,+2570,+Australia"
14761,1,19,Anthony Street,Blacktown,2148,Blacktown,"19 Anthony Street, Blacktown, 2148, Australia",,,"https://www.google.com/maps/search/?api=1&query=19+Anthony+Street,+Blacktown,+2148,+Australia"
14792,,40,Blaxcell Street,Granville,1830,Cumberland,"40 Blaxcell Street, Granville, 1830, Australia",,,"https://www.google.com/maps/search/?api=1&query=40+Blaxcell+Street,+Granville,+1830,+Australia"
14921,,38,Violet Road,Hamlyn Terrace,2259,Central Coast (NSW),"38 Violet Road, Hamlyn Terrace, 2259, Australia",,,"https://www.google.com/maps/search/?api=1&query=38+Violet+Road,+Hamlyn+Terrace,+2259,+Australia"
14923,,106,Georgia Drive,Hamlyn Terrace,2259,Central Coast (NSW),"106 Georgia Drive, Hamlyn Terrace, 2259, Australia",-33.2564995,151.4857417,"https://www.google.com/maps/search/?api=1&query=106+Georgia+Drive,+Hamlyn+Terrace,+2259,+Australia"
14955,,3,Beaufort Avenue,Austral,2171,Liverpool,"3 Beaufort Avenue, Austral, 2171, Australia",-33.9147824,150.8178258,"https://www.google.com/maps/search/?api=1&query=3+Beaufort+Avenue,+Austral,+2171,+Australia"
14964,,48,Stonebridge Drive,Cessnock,2323,Cessnock,"48 Stonebridge Drive, Cessnock, 2323, Australia",-32.8279412,151.3385348,"https://www.google.com/maps/search/?api=1&query=48+Stonebridge+Drive,+Cessnock,+2323,+Australia"
15092,,13,Croft Street,Thornton,2322,Maitland,"13 Croft Street, Thornton, 2322, Australia",,,"https://www.google.com/maps/search/?api=1&query=13+Croft+Street,+Thornton,+2322,+Australia"
15146,,24,Primrose Drive,Hamlyn Terrace,2259,Central Coast (NSW),"24 Primrose Drive, Hamlyn Terrace, 2259, Australia",-33.2528141,151.4799254,"https://www.google.com/maps/search/?api=1&query=24+Primrose+Drive,+Hamlyn+Terrace,+2259,+Australia"
15230,,25,Mudford Street,Taree,2430,Mid-Coast,"25 Mudford Street, Taree, 2430, Australia",-31.8808545,152.4608468,"https://www.google.com/maps/search/?api=1&query=25+Mudford+Street,+Taree,+2430,+Australia"
15267,1,12,Landsborough Close,Westdale,2340,Tamworth,"12 Landsborough Close, Westdale, 2340, Australia",-31.0988166,150.8779406,"https://www.google.com/maps/search/?api=1&query=12+Landsborough+Close,+Westdale,+2340,+Australia"
15271,,120,Randalls Road,Bucca,2450,Coffs Harbour,"120 Randalls Road, Bucca, 2450, Australia",-30.1293825,153.0636231,"https://www.google.com/maps/search/?api=1&query=120+Randalls+Road,+Bucca,+2450,+Australia"
15398,,7,Collins Avenue,Dubbo,2830,Dubbo,"7 Collins Avenue, Dubbo, 2830, Australia",-32.2398336,148.6354562,"https://www.google.com/maps/search/?api=1&query=7+Collins+Avenue,+Dubbo,+2830,+Australia"
1548,,133,Creedon Street,Broken Hill,2880,Broken Hill,"133 Creedon Street, Broken Hill, 2880, Australia",-31.967578250000003,141.4338575,"https://www.google.com/maps/search/?api=1&query=133+Creedon+Street,+Broken+Hill,+2880,+Australia"
15483,,60,Rhythm Drive,Ripley,4306,Ipswich,"60 Rhythm Drive, Ripley, 4306, Australia",,,"https://www.google.com/maps/search/?api=1&query=60+Rhythm+Drive,+Ripley,+4306,+Australia"
1555,,97,Creedon Street,Broken Hill,2880,Broken Hill,"97 Creedon Street, Broken Hill, 2880, Australia",-31.969788100000002,141.4357254924194,"https://www.google.com/maps/search/?api=1&query=97+Creedon+Street,+Broken+Hill,+2880,+Australia"
15559,,58,Derbyshire Road,Springfarm,2570,Camden,"58 Derbyshire Road, Springfarm, 2570, Australia",,,"https://www.google.com/maps/search/?api=1&query=58+Derbyshire+Road,+Springfarm,+2570,+Australia"
15658,,14,Cardigan Close,Melton South,3338,Melton,"14 Cardigan Close, Melton South, 3338, Australia",-37.7096468,144.5618968,"https://www.google.com/maps/search/?api=1&query=14+Cardigan+Close,+Melton+South,+3338,+Australia"
15659,,37,Tussock Drive,White Hills,3550,Greater Bendigo,"37 Tussock Drive, White Hills, 3550, Australia",-36.7222492,144.3085247,"https://www.google.com/maps/search/?api=1&query=37+Tussock+Drive,+White+Hills,+3550,+Australia"
15675,,11,Cardigan Close,Melton South,3338,Melton,"11 Cardigan Close, Melton South, 3338, Australia",-37.7096468,144.5618968,"https://www.google.com/maps/search/?api=1&query=11+Cardigan+Close,+Melton+South,+3338,+Australia"
15775,,14,Beveridge Crescent,Dubbo,2830,Dubbo,"14 Beveridge Crescent, Dubbo, 2830, Australia",-32.2728739,148.6140969,"https://www.google.com/maps/search/?api=1&query=14+Beveridge+Crescent,+Dubbo,+2830,+Australia"
15782,,14,Leumeah Place,Bolton Point,2283,Lake Macquarie,"14 Leumeah Place, Bolton Point, 2283, Australia",-32.9937446,151.6068197,"https://www.google.com/maps/search/?api=1&query=14+Leumeah+Place,+Bolton+Point,+2283,+Australia"
15834,,12,Dragon Avenue,Morayfield,4506,Moreton Bay,"12 Dragon Avenue, Morayfield, 4506, Australia",-27.1204264,152.9517428,"https://www.google.com/maps/search/?api=1&query=12+Dragon+Avenue,+Morayfield,+4506,+Australia"
15858,,14,Cunningham Street,Dubbo,2830,Dubbo,"14 Cunningham Street, Dubbo, 2830, Australia",-32.2470935,148.6374406,"https://www.google.com/maps/search/?api=1&query=14+Cunningham+Street,+Dubbo,+2830,+Australia"
15868,,17,Wilton Grove,Woongarrah,2259,Central Coast (NSW),"17 Wilton Grove, Woongarrah, 2259, Australia",-33.2404186,151.4591482,"https://www.google.com/maps/search/?api=1&query=17+Wilton+Grove,+Woongarrah,+2259,+Australia"
15893,,80,Catherine Drive,Dubbo,2830,Dubbo,"80 Catherine Drive, Dubbo, 2830, Australia",-32.2378917,148.588292,"https://www.google.com/maps/search/?api=1&query=80+Catherine+Drive,+Dubbo,+2830,+Australia"
1597,,269,Knox Street,Broken Hill,2880,Broken Hill,"269 Knox Street, Broken Hill, 2880, Australia",-31.984228,141.4718047,"https://www.google.com/maps/search/?api=1&query=269+Knox+Street,+Broken+Hill,+2880,+Australia"
15973,,10,Ann Street,Taree,2430,Mid-Coast,"10 Ann Street, Taree, 2430, Australia",-31.8973128,152.4656024,"https://www.google.com/maps/search/?api=1&query=10+Ann+Street,+Taree,+2430,+Australia"
16007,,21,Burlington Close,Cameron Park,2285,Lake Macquarie,"21 Burlington Close, Cameron Park, 2285, Australia",-32.9177057,151.6207856,"https://www.google.com/maps/search/?api=1&query=21+Burlington+Close,+Cameron+Park,+2285,+Australia"
16011,,9,Vincent Avenue,Sippy Downs,4556,Sunshine Coast,"9 Vincent Avenue, Sippy Downs, 4556, Australia",-26.7298423,153.0776361,"https://www.google.com/maps/search/?api=1&query=9+Vincent+Avenue,+Sippy+Downs,+4556,+Australia"
16044,,4,Benendarah Way,Tullimbar,2527,Wollongong,"4 Benendarah Way, Tullimbar, 2527, Australia",,,"https://www.google.com/maps/search/?api=1&query=4+Benendarah+Way,+Tullimbar,+2527,+Australia"
16049,,1,Dresden Street,Bald Hills,4036,Brisbane,"1 Dresden Street, Bald Hills, 4036, Australia",-27.3182607,153.0145141,"https://www.google.com/maps/search/?api=1&query=1+Dresden+Street,+Bald+Hills,+4036,+Australia"
16077,,34,Howard Ave,Dubbo,2830,Dubbo,"34 Howard Ave, Dubbo, 2830, Australia",-32.2448805,148.5865739,"https://www.google.com/maps/search/?api=1&query=34+Howard+Ave,+Dubbo,+2830,+Australia"
1617,,657,McGowen Street,Broken Hill,2880,Broken Hill,"657 McGowen Street, Broken Hill, 2880, Australia",-31.9390856,141.4722046,"https://www.google.com/maps/search/?api=1&query=657+McGowen+Street,+Broken+Hill,+2880,+Australia"
1618,,661,McGowen Street,Broken Hill,2880,Broken Hill,"661 McGowen Street, Broken Hill, 2880, Australia",-31.9390856,141.4722046,"https://www.google.com/maps/search/?api=1&query=661+McGowen+Street,+Broken+Hill,+2880,+Australia"
1620,,668,McGowen Street,Broken Hill,2880,Broken Hill,"668 McGowen Street, Broken Hill, 2880, Australia",-31.9390856,141.4722046,"https://www.google.com/maps/search/?api=1&query=668+McGowen+Street,+Broken+Hill,+2880,+Australia"
1621,,672,McGowen Street,Broken Hill,2880,Broken Hill,"672 McGowen Street, Broken Hill, 2880, Australia",-31.9390856,141.4722046,"https://www.google.com/maps/search/?api=1&query=672+McGowen+Street,+Broken+Hill,+2880,+Australia"
1622,,674,McGowen Street,Broken Hill,2880,Broken Hill,"674 McGowen Street, Broken Hill, 2880, Australia",-31.9390856,141.4722046,"https://www.google.com/maps/search/?api=1&query=674+McGowen+Street,+Broken+Hill,+2880,+Australia"
1639,,37,Nicholls Street,Broken Hill,2880,Broken Hill,"37 Nicholls Street, Broken Hill, 2880, Australia",-31.9649261,141.4396279,"https://www.google.com/maps/search/?api=1&query=37+Nicholls+Street,+Broken+Hill,+2880,+Australia"
1640,,611,O'Neill Street,Broken Hill,2880,Broken Hill,"611 O'Neill Street, Broken Hill, 2880, Australia",-31.9361366,141.4689704,"https://www.google.com/maps/search/?api=1&query=611+O'Neill+Street,+Broken+Hill,+2880,+Australia"
1669,,329,Williams Street,Broken Hill,2880,Broken Hill,"329 Williams Street, Broken Hill, 2880, Australia",-31.9585594,141.4428178,"https://www.google.com/maps/search/?api=1&query=329+Williams+Street,+Broken+Hill,+2880,+Australia"
1780,,18,Crinoline Street,Denman,2328,Muswellbrook,"18 Crinoline Street, Denman, 2328, Australia",-32.3878303,150.6901208,"https://www.google.com/maps/search/?api=1&query=18+Crinoline+Street,+Denman,+2328,+Australia"
1784,,13,Martindale Street,Denman,2328,Muswellbrook,"13 Martindale Street, Denman, 2328, Australia",-32.3824976,150.6879075,"https://www.google.com/maps/search/?api=1&query=13+Martindale+Street,+Denman,+2328,+Australia"
1942,,2,Fairleigh Street,Glendale,2285,Lake Macquarie,"2 Fairleigh Street, Glendale, 2285, Australia",-32.9281579,151.6406269,"https://www.google.com/maps/search/?api=1&query=2+Fairleigh+Street,+Glendale,+2285,+Australia"
1985,,8,Poyner Avenue,Glendale,2285,Lake Macquarie,"8 Poyner Avenue, Glendale, 2285, Australia",-32.9295687,151.6465189,"https://www.google.com/maps/search/?api=1&query=8+Poyner+Avenue,+Glendale,+2285,+Australia"
2032,,8,Figtree Place,Hamilton,2303,Newcastle,"8 Figtree Place, Hamilton, 2303, Australia",,,"https://www.google.com/maps/search/?api=1&query=8+Figtree+Place,+Hamilton,+2303,+Australia"
2071,17,10,Hexham Street,Kahibah,2290,Lake Macquarie,"10 Hexham Street, Kahibah, 2290, Australia",-32.9628867,151.7135638,"https://www.google.com/maps/search/?api=1&query=10+Hexham+Street,+Kahibah,+2290,+Australia"
2086,8,10,Hexham Street,Kahibah,2290,Lake Macquarie,"10 Hexham Street, Kahibah, 2290, Australia",-32.9628867,151.7135638,"https://www.google.com/maps/search/?api=1&query=10+Hexham+Street,+Kahibah,+2290,+Australia"
2104,,38,Maree Blvd,Killarney Vale,2261,Central Coast (NSW),"38 Maree Blvd, Killarney Vale, 2261, Australia",-33.3752314,151.4574245,"https://www.google.com/maps/search/?api=1&query=38+Maree+Blvd,+Killarney+Vale,+2261,+Australia"
2156,,7,Durham Road,Lambton,2299,Newcastle,"7 Durham Road, Lambton, 2299, Australia",-32.9164233,151.7174261,"https://www.google.com/maps/search/?api=1&query=7+Durham+Road,+Lambton,+2299,+Australia"
2197,,2,Rees Way,Lambton Gardens,2299,Newcastle,"2 Rees Way, Lambton Gardens, 2299, Australia",,,"https://www.google.com/maps/search/?api=1&query=2+Rees+Way,+Lambton+Gardens,+2299,+Australia"
2206,,61,Balarang Street,Maryland,2287,Newcastle,"61 Balarang Street, Maryland, 2287, Australia",-32.8705262,151.6514207,"https://www.google.com/maps/search/?api=1&query=61+Balarang+Street,+Maryland,+2287,+Australia"
2345,,20,Anzac Parade,Muswellbrook,2333,Muswellbrook,"20 Anzac Parade, Muswellbrook, 2333, Australia",-32.2741837,150.8808337,"https://www.google.com/maps/search/?api=1&query=20+Anzac+Parade,+Muswellbrook,+2333,+Australia"
2347,,27,Anzac Parade,Muswellbrook,2333,Muswellbrook,"27 Anzac Parade, Muswellbrook, 2333, Australia",-32.2741837,150.8808337,"https://www.google.com/maps/search/?api=1&query=27+Anzac+Parade,+Muswellbrook,+2333,+Australia"
2424,,141,Wollombi Road,Muswellbrook,2333,Muswellbrook,"141 Wollombi Road, Muswellbrook, 2333, Australia",-32.2761483,150.8745421,"https://www.google.com/maps/search/?api=1&query=141+Wollombi+Road,+Muswellbrook,+2333,+Australia"
2472,,12,Bingle Street,Scone,2337,Upper Hunter,"12 Bingle Street, Scone, 2337, Australia",-32.0544615,150.8765973,"https://www.google.com/maps/search/?api=1&query=12+Bingle+Street,+Scone,+2337,+Australia"
2476,,18,Bingle Street,Scone,2337,Upper Hunter,"18 Bingle Street, Scone, 2337, Australia",-32.0544615,150.8765973,"https://www.google.com/maps/search/?api=1&query=18+Bingle+Street,+Scone,+2337,+Australia"
2555,,26,Stafford Street,Scone,2337,Upper Hunter,"26 Stafford Street, Scone, 2337, Australia",-32.0512991,150.876223,"https://www.google.com/maps/search/?api=1&query=26+Stafford+Street,+Scone,+2337,+Australia"
2682,,20,Kenny Close,Swansea,2281,Lake Macquarie,"20 Kenny Close, Swansea, 2281, Australia",-33.0977822,151.6300499,"https://www.google.com/maps/search/?api=1&query=20+Kenny+Close,+Swansea,+2281,+Australia"
2696,,12,Aldwick Close,Tarro,2322,Newcastle,"12 Aldwick Close, Tarro, 2322, Australia",-32.8100851,151.6556211,"https://www.google.com/maps/search/?api=1&query=12+Aldwick+Close,+Tarro,+2322,+Australia"
2697,,1,Aldwick Close,Tarro,2322,Newcastle,"1 Aldwick Close, Tarro, 2322, Australia",-32.8100851,151.6556211,"https://www.google.com/maps/search/?api=1&query=1+Aldwick+Close,+Tarro,+2322,+Australia"
2701,,8,Aldwick Close,Tarro,2322,Newcastle,"8 Aldwick Close, Tarro, 2322, Australia",-32.8100851,151.6556211,"https://www.google.com/maps/search/?api=1&query=8+Aldwick+Close,+Tarro,+2322,+Australia"
2710,5,14,Western Avenue,Tarro,2322,Newcastle,"14 Western Avenue, Tarro, 2322, Australia",-32.810089,151.6583465,"https://www.google.com/maps/search/?api=1&query=14+Western+Avenue,+Tarro,+2322,+Australia"
2712,,2,Somerset Drive,Thornton,2322,Maitland,"2 Somerset Drive, Thornton, 2322, Australia",-32.7782763,151.65255,"https://www.google.com/maps/search/?api=1&query=2+Somerset+Drive,+Thornton,+2322,+Australia"
2772,,116,Eastern Road,Tumbi Umbi,2261,Central Coast (NSW),"116 Eastern Road, Tumbi Umbi, 2261, Australia",-33.3696195,151.4499813,"https://www.google.com/maps/search/?api=1&query=116+Eastern+Road,+Tumbi+Umbi,+2261,+Australia"
2802,,18,Northumberland Way,Tumbi Umbi,2261,Central Coast (NSW),"18 Northumberland Way, Tumbi Umbi, 2261, Australia",-33.3752245,151.4561033,"https://www.google.com/maps/search/?api=1&query=18+Northumberland+Way,+Tumbi+Umbi,+2261,+Australia"
2803,,19,Northumberland Way,Tumbi Umbi,2261,Central Coast (NSW),"19 Northumberland Way, Tumbi Umbi, 2261, Australia",-33.3752245,151.4561033,"https://www.google.com/maps/search/?api=1&query=19+Northumberland+Way,+Tumbi+Umbi,+2261,+Australia"
2804,,21,Northumberland Way,Tumbi Umbi,2261,Central Coast (NSW),"21 Northumberland Way, Tumbi Umbi, 2261, Australia",-33.3752245,151.4561033,"https://www.google.com/maps/search/?api=1&query=21+Northumberland+Way,+Tumbi+Umbi,+2261,+Australia"
2807,,25,Northumberland Way,Tumbi Umbi,2261,Central Coast (NSW),"25 Northumberland Way, Tumbi Umbi, 2261, Australia",-33.3752245,151.4561033,"https://www.google.com/maps/search/?api=1&query=25+Northumberland+Way,+Tumbi+Umbi,+2261,+Australia"
2808,,26,Northumberland Way,Tumbi Umbi,2261,Central Coast (NSW),"26 Northumberland Way, Tumbi Umbi, 2261, Australia",-33.3752245,151.4561033,"https://www.google.com/maps/search/?api=1&query=26+Northumberland+Way,+Tumbi+Umbi,+2261,+Australia"
2819,,4,Northumberland Way,Tumbi Umbi,2261,Central Coast (NSW),"4 Northumberland Way, Tumbi Umbi, 2261, Australia",-33.3752245,151.4561033,"https://www.google.com/maps/search/?api=1&query=4+Northumberland+Way,+Tumbi+Umbi,+2261,+Australia"
2883,,57,Stapleton Street,Wallsend,2287,Newcastle,"57 Stapleton Street, Wallsend, 2287, Australia",-32.8976814,151.6791074,"https://www.google.com/maps/search/?api=1&query=57+Stapleton+Street,+Wallsend,+2287,+Australia"
2936,,39,Warners Bay Road,Warners Bay,2282,Lake Macquarie,"39 Warners Bay Road, Warners Bay, 2282, Australia",-32.9833462,151.6543949,"https://www.google.com/maps/search/?api=1&query=39+Warners+Bay+Road,+Warners+Bay,+2282,+Australia"
3069,,32,Anzac Parade,Muswellbrook,2333,Muswellbrook,"32 Anzac Parade, Muswellbrook, 2333, Australia",-32.2741837,150.8808337,"https://www.google.com/maps/search/?api=1&query=32+Anzac+Parade,+Muswellbrook,+2333,+Australia"
3070,,8,Anzac Parade,Muswellbrook,2333,Muswellbrook,"8 Anzac Parade, Muswellbrook, 2333, Australia",-32.2741837,150.8808337,"https://www.google.com/maps/search/?api=1&query=8+Anzac+Parade,+Muswellbrook,+2333,+Australia"
3081,,31,Skellatar Street,Muswellbrook,2333,Muswellbrook,"31 Skellatar Street, Muswellbrook, 2333, Australia",-32.2729945,150.8857677,"https://www.google.com/maps/search/?api=1&query=31+Skellatar+Street,+Muswellbrook,+2333,+Australia"
4046,,33,Mitchell Street,Muswellbrook,2333,Muswellbrook,"33 Mitchell Street, Muswellbrook, 2333, Australia",-32.2692401,150.8847586,"https://www.google.com/maps/search/?api=1&query=33+Mitchell+Street,+Muswellbrook,+2333,+Australia"
4070,,26,Coorabin Street,Gorokan,2263,Central Coast (NSW),"26 Coorabin Street, Gorokan, 2263, Australia",-33.260667,151.5007801,"https://www.google.com/maps/search/?api=1&query=26+Coorabin+Street,+Gorokan,+2263,+Australia"
4089,,17,Tindale Street,Muswellbrook,2333,Muswellbrook,"17 Tindale Street, Muswellbrook, 2333, Australia",-32.2737441,150.8826497,"https://www.google.com/maps/search/?api=1&query=17+Tindale+Street,+Muswellbrook,+2333,+Australia"
4209,,92,Christo Road,Waratah,2298,Newcastle,"92 Christo Road, Waratah, 2298, Australia",-32.9106523,151.7266042,"https://www.google.com/maps/search/?api=1&query=92+Christo+Road,+Waratah,+2298,+Australia"
4305,,321,Fitzroy Street,Dubbo,2830,Dubbo,"321 Fitzroy Street, Dubbo, 2830, Australia",-32.2529045,148.6127962,"https://www.google.com/maps/search/?api=1&query=321+Fitzroy+Street,+Dubbo,+2830,+Australia"
4328,,15,Dunheved Street,Dubbo,2830,Dubbo,"15 Dunheved Street, Dubbo, 2830, Australia",,,"https://www.google.com/maps/search/?api=1&query=15+Dunheved+Street,+Dubbo,+2830,+Australia"
4347,,30,Hayden Brook Road,Booragul,2284,Lake Macquarie,"30 Hayden Brook Road, Booragul, 2284, Australia",-32.9807804,151.6065652,"https://www.google.com/maps/search/?api=1&query=30+Hayden+Brook+Road,+Booragul,+2284,+Australia"
4353,,3,Eskdale Street,New Lambton,2305,Newcastle,"3 Eskdale Street, New Lambton, 2305, Australia",,,"https://www.google.com/maps/search/?api=1&query=3+Eskdale+Street,+New+Lambton,+2305,+Australia"
4403,,8,Peter Street,Rutherford,2320,Maitland,"8 Peter Street, Rutherford, 2320, Australia",-32.7131032,151.5329724,"https://www.google.com/maps/search/?api=1&query=8+Peter+Street,+Rutherford,+2320,+Australia"
4414,,2,Doncaster Ave,Dubbo,2830,Dubbo,"2 Doncaster Ave, Dubbo, 2830, Australia",-32.2613752,148.6306521,"https://www.google.com/maps/search/?api=1&query=2+Doncaster+Ave,+Dubbo,+2830,+Australia"
4647,,18,Kitchener Parade,Mayfield,2304,Newcastle,"18 Kitchener Parade, Mayfield, 2304, Australia",-32.8980171,151.7508044,"https://www.google.com/maps/search/?api=1&query=18+Kitchener+Parade,+Mayfield,+2304,+Australia"
4673,,2,Reef Way,Muswellbrook,2333,Muswellbrook,"2 Reef Way, Muswellbrook, 2333, Australia",-32.2755921,150.8768827,"https://www.google.com/maps/search/?api=1&query=2+Reef+Way,+Muswellbrook,+2333,+Australia"
4687,,35,Tobruk Avenue,Muswellbrook,2333,Muswellbrook,"35 Tobruk Avenue, Muswellbrook, 2333, Australia",-32.2760276,150.8784652,"https://www.google.com/maps/search/?api=1&query=35+Tobruk+Avenue,+Muswellbrook,+2333,+Australia"
4693,,77,Tobruk Avenue,Muswellbrook,2333,Muswellbrook,"77 Tobruk Avenue, Muswellbrook, 2333, Australia",-32.2760276,150.8784652,"https://www.google.com/maps/search/?api=1&query=77+Tobruk+Avenue,+Muswellbrook,+2333,+Australia"
4704,,43,Tobruk Avenue,Muswellbrook,2333,Muswellbrook,"43 Tobruk Avenue, Muswellbrook, 2333, Australia",-32.2760276,150.8784652,"https://www.google.com/maps/search/?api=1&query=43+Tobruk+Avenue,+Muswellbrook,+2333,+Australia"
4725,,6,Reef Way,Muswellbrook,2333,Muswellbrook,"6 Reef Way, Muswellbrook, 2333, Australia",-32.2755921,150.8768827,"https://www.google.com/maps/search/?api=1&query=6+Reef+Way,+Muswellbrook,+2333,+Australia"
4738,,5,Clarence Way,Muswellbrook,2333,Muswellbrook,"5 Clarence Way, Muswellbrook, 2333, Australia",-32.2771373,150.8763408,"https://www.google.com/maps/search/?api=1&query=5+Clarence+Way,+Muswellbrook,+2333,+Australia"
4748,,1B,Tarakan Ave,Muswellbrook,2333,Muswellbrook,"1B Tarakan Ave, Muswellbrook, 2333, Australia",-32.2746064,150.8783715,"https://www.google.com/maps/search/?api=1&query=1B+Tarakan+Ave,+Muswellbrook,+2333,+Australia"
4749,,5,Pacific Way,Muswellbrook,2333,Muswellbrook,"5 Pacific Way, Muswellbrook, 2333, Australia",-32.2751526,150.8774141,"https://www.google.com/maps/search/?api=1&query=5+Pacific+Way,+Muswellbrook,+2333,+Australia"
4832,,1,Pacific Way,Muswellbrook,2333,Muswellbrook,"1 Pacific Way, Muswellbrook, 2333, Australia",-32.2751526,150.8774141,"https://www.google.com/maps/search/?api=1&query=1+Pacific+Way,+Muswellbrook,+2333,+Australia"
4833,,4,Pacific Way,Muswellbrook,2333,Muswellbrook,"4 Pacific Way, Muswellbrook, 2333, Australia",-32.2751526,150.8774141,"https://www.google.com/maps/search/?api=1&query=4+Pacific+Way,+Muswellbrook,+2333,+Australia"
4836,,126,Wollombi Road,Muswellbrook,2333,Muswellbrook,"126 Wollombi Road, Muswellbrook, 2333, Australia",-32.2761483,150.8745421,"https://www.google.com/maps/search/?api=1&query=126+Wollombi+Road,+Muswellbrook,+2333,+Australia"
4861,,6,Jersey Place,Muswellbrook,2333,Muswellbrook,"6 Jersey Place, Muswellbrook, 2333, Australia",-32.2765009,150.8810529,"https://www.google.com/maps/search/?api=1&query=6+Jersey+Place,+Muswellbrook,+2333,+Australia"
4895,,118,George Evans,Killarney Vale,2261,Central Coast (NSW),"118 George Evans, Killarney Vale, 2261, Australia",-33.3738975,151.4620824,"https://www.google.com/maps/search/?api=1&query=118+George+Evans,+Killarney+Vale,+2261,+Australia"
4901,,14,Gossimer Close,Killarney Vale,2261,Central Coast (NSW),"14 Gossimer Close, Killarney Vale, 2261, Australia",-33.3688303,151.4569462,"https://www.google.com/maps/search/?api=1&query=14+Gossimer+Close,+Killarney+Vale,+2261,+Australia"
4912,,111,Wollombi Road,Muswellbrook,2333,Muswellbrook,"111 Wollombi Road, Muswellbrook, 2333, Australia",-32.2761483,150.8745421,"https://www.google.com/maps/search/?api=1&query=111+Wollombi+Road,+Muswellbrook,+2333,+Australia"
4917,,8,Jersey Pl,Muswellbrook,2333,Muswellbrook,"8 Jersey Pl, Muswellbrook, 2333, Australia",-32.2765009,150.8810529,"https://www.google.com/maps/search/?api=1&query=8+Jersey+Pl,+Muswellbrook,+2333,+Australia"
4948,,2,Rainbow Close,Killarney Vale,2261,Central Coast (NSW),"2 Rainbow Close, Killarney Vale, 2261, Australia",-33.3703528,151.4581718,"https://www.google.com/maps/search/?api=1&query=2+Rainbow+Close,+Killarney+Vale,+2261,+Australia"
4951,,8,Avery Street,Killarney Vale,2261,Central Coast (NSW),"8 Avery Street, Killarney Vale, 2261, Australia",-33.3689761,151.4577236,"https://www.google.com/maps/search/?api=1&query=8+Avery+Street,+Killarney+Vale,+2261,+Australia"
5048,,29-31,Edwin Street,Dubbo,2830,Dubbo,"29-31 Edwin Street, Dubbo, 2830, Australia",-32.2385429,148.613003,"https://www.google.com/maps/search/?api=1&query=29-31+Edwin+Street,+Dubbo,+2830,+Australia"
5049,,81,George St,East Maitland,2323,Maitland,"81 George St, East Maitland, 2323, Australia",-32.7491636,151.5908866,"https://www.google.com/maps/search/?api=1&query=81+George+St,+East+Maitland,+2323,+Australia"
5094,,11,Coral Street,Muswellbrook,2333,Muswellbrook,"11 Coral Street, Muswellbrook, 2333, Australia",-32.2755921,150.8768827,"https://www.google.com/maps/search/?api=1&query=11+Coral+Street,+Muswellbrook,+2333,+Australia"
5157,,5A,Jonquil Court,Dubbo,2830,Dubbo,"5A Jonquil Court, Dubbo, 2830, Australia",-32.2699785,148.6240917,"https://www.google.com/maps/search/?api=1&query=5A+Jonquil+Court,+Dubbo,+2830,+Australia"
5158,,5B,Jonquil Court,Dubbo,2830,Dubbo,"5B Jonquil Court, Dubbo, 2830, Australia",-32.2699785,148.6240917,"https://www.google.com/maps/search/?api=1&query=5B+Jonquil+Court,+Dubbo,+2830,+Australia"
5693,,6,Nambucca Cres,Blue Haven,2262,Central Coast (NSW),"6 Nambucca Cres, Blue Haven, 2262, Australia",-33.2116158,151.5067783,"https://www.google.com/maps/search/?api=1&query=6+Nambucca+Cres,+Blue+Haven,+2262,+Australia"
5715,,6,Warringhi Street,Raymond Terrace,2324,Port Stephens,"6 Warringhi Street, Raymond Terrace, 2324, Australia",-32.76768305,151.7445037857881,"https://www.google.com/maps/search/?api=1&query=6+Warringhi+Street,+Raymond+Terrace,+2324,+Australia"
5727,,35,Zinfandel Circuit,Cessnock,2325,Cessnock,"35 Zinfandel Circuit, Cessnock, 2325, Australia",-32.8299837,151.3280971,"https://www.google.com/maps/search/?api=1&query=35+Zinfandel+Circuit,+Cessnock,+2325,+Australia"
5746,,10,Banksia Street,Canton Beach,2263,Central Coast (NSW),"10 Banksia Street, Canton Beach, 2263, Australia",-33.2731065,151.5486651,"https://www.google.com/maps/search/?api=1&query=10+Banksia+Street,+Canton+Beach,+2263,+Australia"
5767,,188,Darby Street,Newcastle,2300,Newcastle,"188 Darby Street, Newcastle, 2300, Australia",-32.9389854,151.7647541,"https://www.google.com/maps/search/?api=1&query=188+Darby+Street,+Newcastle,+2300,+Australia"
5772,,1,Boulderwood Place,Dubbo,2830,Dubbo,"1 Boulderwood Place, Dubbo, 2830, Australia",-32.2449284,148.5812838,"https://www.google.com/maps/search/?api=1&query=1+Boulderwood+Place,+Dubbo,+2830,+Australia"
5774,,64,Cambronne Parade,Elermore Vale,2287,Newcastle,"64 Cambronne Parade, Elermore Vale, 2287, Australia",-32.9166624,151.6796681,"https://www.google.com/maps/search/?api=1&query=64+Cambronne+Parade,+Elermore+Vale,+2287,+Australia"
5792,,49,Frederick Street,Merewether,2291,Newcastle,"49 Frederick Street, Merewether, 2291, Australia",-32.9492543,151.75576,"https://www.google.com/maps/search/?api=1&query=49+Frederick+Street,+Merewether,+2291,+Australia"
5798,,18,Woollybutt Way,Muswellbrook,2333,Muswellbrook,"18 Woollybutt Way, Muswellbrook, 2333, Australia",-32.2830222,150.8975104,"https://www.google.com/maps/search/?api=1&query=18+Woollybutt+Way,+Muswellbrook,+2333,+Australia"
5799,,5,Wilga Glen Close,Muswellbrook,2333,Muswellbrook,"5 Wilga Glen Close, Muswellbrook, 2333, Australia",,,"https://www.google.com/maps/search/?api=1&query=5+Wilga+Glen+Close,+Muswellbrook,+2333,+Australia"
5807,7,252,Old Pacific Highway,Swansea,2281,Lake Macquarie,"252 Old Pacific Highway, Swansea, 2281, Australia",-33.1002418,151.6277866,"https://www.google.com/maps/search/?api=1&query=252+Old+Pacific+Highway,+Swansea,+2281,+Australia"
5808,,1,Kembla Close,Toronto,2283,Lake Macquarie,"1 Kembla Close, Toronto, 2283, Australia",-33.0242608,151.6001077,"https://www.google.com/maps/search/?api=1&query=1+Kembla+Close,+Toronto,+2283,+Australia"
5809,,33,Cowper Street,Wallsend,2287,Newcastle,"33 Cowper Street, Wallsend, 2287, Australia",-32.9060338,151.6642789,"https://www.google.com/maps/search/?api=1&query=33+Cowper+Street,+Wallsend,+2287,+Australia"
5811,,17,Kimian Avenue,Waratah,2298,Newcastle,"17 Kimian Avenue, Waratah, 2298, Australia",-32.8977175,151.7090302,"https://www.google.com/maps/search/?api=1&query=17+Kimian+Avenue,+Waratah,+2298,+Australia"
5828,,1C,Quarrybylong Street,Cessnock,2325,Cessnock,"1C Quarrybylong Street, Cessnock, 2325, Australia",-32.8354815,151.3634529,"https://www.google.com/maps/search/?api=1&query=1C+Quarrybylong+Street,+Cessnock,+2325,+Australia"
5830,,12,Menzies Way,Rutherford,2320,Maitland,"12 Menzies Way, Rutherford, 2320, Australia",-32.7083046,151.5395731,"https://www.google.com/maps/search/?api=1&query=12+Menzies+Way,+Rutherford,+2320,+Australia"
5831,,15,Boxer Street,Gillieston Heights,2321,Maitland,"15 Boxer Street, Gillieston Heights, 2321, Australia",-32.7567589,151.53836788785046,"https://www.google.com/maps/search/?api=1&query=15+Boxer+Street,+Gillieston+Heights,+2321,+Australia"
5893,,9,Lachlan Ave,Singleton Heights,2330,Singleton,"9 Lachlan Ave, Singleton Heights, 2330, Australia",-32.5414177,151.1567397,"https://www.google.com/maps/search/?api=1&query=9+Lachlan+Ave,+Singleton+Heights,+2330,+Australia"
5907,,1,St Albans Way,Dubbo,2830,Dubbo,"1 St Albans Way, Dubbo, 2830, Australia",-32.2561845,148.6458172,"https://www.google.com/maps/search/?api=1&query=1+St+Albans+Way,+Dubbo,+2830,+Australia"
5927,,11,Fraser Street,Jesmond,2299,Newcastle,"11 Fraser Street, Jesmond, 2299, Australia",-32.898308,151.6893077,"https://www.google.com/maps/search/?api=1&query=11+Fraser+Street,+Jesmond,+2299,+Australia"
5953,,197,McQueen Street,Aberdeen,2336,Upper Hunter,"197 McQueen Street, Aberdeen, 2336, Australia",,,"https://www.google.com/maps/search/?api=1&query=197+McQueen+Street,+Aberdeen,+2336,+Australia"
6085,,11,Allworth Street,Merewether,2291,Newcastle,"11 Allworth Street, Merewether, 2291, Australia",-32.937879,151.7467146,"https://www.google.com/maps/search/?api=1&query=11+Allworth+Street,+Merewether,+2291,+Australia"
6146,,8,Spence Street,Dubbo,2830,Dubbo,"8 Spence Street, Dubbo, 2830, Australia",-32.2402793,148.5856802,"https://www.google.com/maps/search/?api=1&query=8+Spence+Street,+Dubbo,+2830,+Australia"
6153,,8,Cardiff Arms Avenue,Dubbo,2830,Dubbo,"8 Cardiff Arms Avenue, Dubbo, 2830, Australia",-32.234302,148.642118,"https://www.google.com/maps/search/?api=1&query=8+Cardiff+Arms+Avenue,+Dubbo,+2830,+Australia"
6332,,19,Arthur Summons Street,Dubbo,2830,Dubbo,"19 Arthur Summons Street, Dubbo, 2830, Australia",-32.2369638,148.6422086,"https://www.google.com/maps/search/?api=1&query=19+Arthur+Summons+Street,+Dubbo,+2830,+Australia"
6416,,1,Edward Windeyer Way,Raymond Terrace,2324,Maitland,"1 Edward Windeyer Way, Raymond Terrace, 2324, Australia",-32.7659295,151.7662197,"https://www.google.com/maps/search/?api=1&query=1+Edward+Windeyer+Way,+Raymond+Terrace,+2324,+Australia"
6421,,413,Wheelers Lane,Dubbo,2830,Dubbo,"413 Wheelers Lane, Dubbo, 2830, Australia",-32.254141,148.6296664,"https://www.google.com/maps/search/?api=1&query=413+Wheelers+Lane,+Dubbo,+2830,+Australia"
6538,,44,Jack William Drive,Dubbo,2830,Dubbo,"44 Jack William Drive, Dubbo, 2830, Australia",-32.2360897,148.6468679,"https://www.google.com/maps/search/?api=1&query=44+Jack+William+Drive,+Dubbo,+2830,+Australia"
6632,,23,Timgarlen Drive,Dubbo,2830,Dubbo,"23 Timgarlen Drive, Dubbo, 2830, Australia",,,"https://www.google.com/maps/search/?api=1&query=23+Timgarlen+Drive,+Dubbo,+2830,+Australia"
7918,,7,Margaret Crescent,Dubbo,2830,Dubbo,"7 Margaret Crescent, Dubbo, 2830, Australia",-32.2724652,148.6175069,"https://www.google.com/maps/search/?api=1&query=7+Margaret+Crescent,+Dubbo,+2830,+Australia"
7946,,76,Awabakal Drive,Fletcher,2287,Newcastle,"76 Awabakal Drive, Fletcher, 2287, Australia",-32.8728903,151.6443603,"https://www.google.com/maps/search/?api=1&query=76+Awabakal+Drive,+Fletcher,+2287,+Australia"
7951,,50,Seaside Drive,Fern Bay,2295,Port Stephens,"50 Seaside Drive, Fern Bay, 2295, Australia",,,"https://www.google.com/maps/search/?api=1&query=50+Seaside+Drive,+Fern+Bay,+2295,+Australia"
8071,,22,Transfield Avenue,Edgeworth,2285,Lake Macquarie,"22 Transfield Avenue, Edgeworth, 2285, Australia",-32.9171385,151.6275292,"https://www.google.com/maps/search/?api=1&query=22+Transfield+Avenue,+Edgeworth,+2285,+Australia"
8082,,3,Pring Street,Warners Bay,2282,Lake Macquarie,"3 Pring Street, Warners Bay, 2282, Australia",-32.9721858,151.6511695,"https://www.google.com/maps/search/?api=1&query=3+Pring+Street,+Warners+Bay,+2282,+Australia"
8131,,26,Transfield Avenue,Edgeworth,2285,Lake Macquarie,"26 Transfield Avenue, Edgeworth, 2285, Australia",-32.9171385,151.6275292,"https://www.google.com/maps/search/?api=1&query=26+Transfield+Avenue,+Edgeworth,+2285,+Australia"
8173,,6,Tindale Street,Muswellbrook,2333,Muswellbrook,"6 Tindale Street, Muswellbrook, 2333, Australia",-32.2737441,150.8826497,"https://www.google.com/maps/search/?api=1&query=6+Tindale+Street,+Muswellbrook,+2333,+Australia"
8236,,18,Transfield Avenue,Edgeworth,2285,Lake Macquarie,"18 Transfield Avenue, Edgeworth, 2285, Australia",-32.9171385,151.6275292,"https://www.google.com/maps/search/?api=1&query=18+Transfield+Avenue,+Edgeworth,+2285,+Australia"
8256,,5,Kelman Drive,Cliftleigh,2321,Maitland,"5 Kelman Drive, Cliftleigh, 2321, Australia",-32.7918281,151.5146039,"https://www.google.com/maps/search/?api=1&query=5+Kelman+Drive,+Cliftleigh,+2321,+Australia"
8268,,27,Cooinda Crescent,Dubbo,2830,Dubbo,"27 Cooinda Crescent, Dubbo, 2830, Australia",-32.2404843,148.590252,"https://www.google.com/maps/search/?api=1&query=27+Cooinda+Crescent,+Dubbo,+2830,+Australia"
8270,,20,Cobbity Avenue,Dubbo,2830,Dubbo,"20 Cobbity Avenue, Dubbo, 2830, Australia",-32.2636576,148.628126,"https://www.google.com/maps/search/?api=1&query=20+Cobbity+Avenue,+Dubbo,+2830,+Australia"
8271,,6,Bellbird Way,Dubbo,2830,Dubbo,"6 Bellbird Way, Dubbo, 2830, Australia",-32.2504236,148.5789311,"https://www.google.com/maps/search/?api=1&query=6+Bellbird+Way,+Dubbo,+2830,+Australia"
8308,,391,Freemans Drive,Cooranbong,2265,Lake Macquarie,"391 Freemans Drive, Cooranbong, 2265, Australia",-33.0510324,151.4707118,"https://www.google.com/maps/search/?api=1&query=391+Freemans+Drive,+Cooranbong,+2265,+Australia"
8430,,49,Anzac Pd,Muswellbrook,2333,Muswellbrook,"49 Anzac Pd, Muswellbrook, 2333, Australia",,,"https://www.google.com/maps/search/?api=1&query=49+Anzac+Pd,+Muswellbrook,+2333,+Australia"
8431,,11,Anzac Pd,Muswellbrook,2333,Muswellbrook,"11 Anzac Pd, Muswellbrook, 2333, Australia",,,"https://www.google.com/maps/search/?api=1&query=11+Anzac+Pd,+Muswellbrook,+2333,+Australia"
8439,,1,Tamar Way,Muswellbrook,2333,Muswellbrook,"1 Tamar Way, Muswellbrook, 2333, Australia",-32.2775949,150.8774008,"https://www.google.com/maps/search/?api=1&query=1+Tamar+Way,+Muswellbrook,+2333,+Australia"
8460,,8,Gossimer Cl,Killarney Vale,2261,Central Coast (NSW),"8 Gossimer Cl, Killarney Vale, 2261, Australia",-33.3688303,151.4569462,"https://www.google.com/maps/search/?api=1&query=8+Gossimer+Cl,+Killarney+Vale,+2261,+Australia"
8464,,12,Hamilton St,Tumbi Umbi,2261,Central Coast (NSW),"12 Hamilton St, Tumbi Umbi, 2261, Australia",-33.3732535,151.4542123,"https://www.google.com/maps/search/?api=1&query=12+Hamilton+St,+Tumbi+Umbi,+2261,+Australia"
8469,,6,Pendant Pde,Killarney Vale,2261,Central Coast (NSW),"6 Pendant Pde, Killarney Vale, 2261, Australia",-33.3679891,151.4563122,"https://www.google.com/maps/search/?api=1&query=6+Pendant+Pde,+Killarney+Vale,+2261,+Australia"
8476,,3,Chapel Crescent,Tumbi Umbi,2261,Central Coast (NSW),"3 Chapel Crescent, Tumbi Umbi, 2261, Australia",,,"https://www.google.com/maps/search/?api=1&query=3+Chapel+Crescent,+Tumbi+Umbi,+2261,+Australia"
8495,,23,Main St,Killarney Vale,2261,Central Coast (NSW),"23 Main St, Killarney Vale, 2261, Australia",-33.3657262,151.4595187,"https://www.google.com/maps/search/?api=1&query=23+Main+St,+Killarney+Vale,+2261,+Australia"
8502,,61,Websdale Drive,Dubbo,2830,Dubbo,"61 Websdale Drive, Dubbo, 2830, Australia",-32.2399183,148.6427173,"https://www.google.com/maps/search/?api=1&query=61+Websdale+Drive,+Dubbo,+2830,+Australia"
8540,,101,Howick Street,Bathurst,2795,Bathurst,"101 Howick Street, Bathurst, 2795, Australia",-33.4174913,149.5816947,"https://www.google.com/maps/search/?api=1&query=101+Howick+Street,+Bathurst,+2795,+Australia"
8553,,305,Darling Street,Dubbo,2830,Dubbo,"305 Darling Street, Dubbo, 2830, Australia",-32.2533309,148.6055569,"https://www.google.com/maps/search/?api=1&query=305+Darling+Street,+Dubbo,+2830,+Australia"
8559,,13,Thomas Smith Place,Dubbo,2830,Dubbo,"13 Thomas Smith Place, Dubbo, 2830, Australia",-32.2370076,148.6568848,"https://www.google.com/maps/search/?api=1&query=13+Thomas+Smith+Place,+Dubbo,+2830,+Australia"
8571,,17,Lisbon Circuit,Orange,2800,Orange,"17 Lisbon Circuit, Orange, 2800, Australia",-33.2722879,149.0635743,"https://www.google.com/maps/search/?api=1&query=17+Lisbon+Circuit,+Orange,+2800,+Australia"
8577,,8,McIntosh Street,Orange,2800,Orange,"8 McIntosh Street, Orange, 2800, Australia",-33.2733817,149.0647264,"https://www.google.com/maps/search/?api=1&query=8+McIntosh+Street,+Orange,+2800,+Australia"
8583,,5,Juniper Place,Orange,2800,Orange,"5 Juniper Place, Orange, 2800, Australia",-33.2950883,149.07234616840577,"https://www.google.com/maps/search/?api=1&query=5+Juniper+Place,+Orange,+2800,+Australia"
8590,,239,Dalton Street,Orange,2800,Orange,"239 Dalton Street, Orange, 2800, Australia",-33.279296,149.1244284,"https://www.google.com/maps/search/?api=1&query=239+Dalton+Street,+Orange,+2800,+Australia"
8602,,171,Ophir Road,Orange,2800,Orange,"171 Ophir Road, Orange, 2800, Australia",-33.2782152,149.1296446,"https://www.google.com/maps/search/?api=1&query=171+Ophir+Road,+Orange,+2800,+Australia"
8608,,40,Wright Street,Broken Hill,2880,Broken Hill,"40 Wright Street, Broken Hill, 2880, Australia",-31.9596608,141.4459063,"https://www.google.com/maps/search/?api=1&query=40+Wright+Street,+Broken+Hill,+2880,+Australia"
8612,,14A,Ralston Drive,Orange,2800,Orange,"14A Ralston Drive, Orange, 2800, Australia",-33.2448486,149.106349,"https://www.google.com/maps/search/?api=1&query=14A+Ralston+Drive,+Orange,+2800,+Australia"
8618,,54,Moonstone Drive,Orange,2800,Orange,"54 Moonstone Drive, Orange, 2800, Australia",-33.250119,149.1068312,"https://www.google.com/maps/search/?api=1&query=54+Moonstone+Drive,+Orange,+2800,+Australia"
8624,,112,Kearneys Drive,Orange,2800,Orange,"112 Kearneys Drive, Orange, 2800, Australia",-33.2650618,149.0932707,"https://www.google.com/maps/search/?api=1&query=112+Kearneys+Drive,+Orange,+2800,+Australia"
8630,,171A,Ophir Road,Orange,2800,Orange,"171A Ophir Road, Orange, 2800, Australia",-33.2782152,149.1296446,"https://www.google.com/maps/search/?api=1&query=171A+Ophir+Road,+Orange,+2800,+Australia"
8636,,3,Lester Place,Abbotsford,2046,Canada Bay,"3 Lester Place, Abbotsford, 2046, Australia",-33.85403095,151.13092381129385,"https://www.google.com/maps/search/?api=1&query=3+Lester+Place,+Abbotsford,+2046,+Australia"
8642,,76,Terry Street,Albion Park,2527,Shellharbour,"76 Terry Street, Albion Park, 2527, Australia",-34.5807842,150.7778464,"https://www.google.com/maps/search/?api=1&query=76+Terry+Street,+Albion+Park,+2527,+Australia"
8648,,45a,The Express Way,Albion Park,2527,Shellharbour,"45a The Express Way, Albion Park, 2527, Australia",,,"https://www.google.com/maps/search/?api=1&query=45a+The+Express+Way,+Albion+Park,+2527,+Australia"
8654,,18,Boonerah Street,Albion Park Rail,2527,Shellharbour,"18 Boonerah Street, Albion Park Rail, 2527, Australia",-34.5621327,150.802878,"https://www.google.com/maps/search/?api=1&query=18+Boonerah+Street,+Albion+Park+Rail,+2527,+Australia"
8660,,27,Station Road,Albion Park Rail,2527,Shellharbour,"27 Station Road, Albion Park Rail, 2527, Australia",-34.5632334,150.7977549,"https://www.google.com/maps/search/?api=1&query=27+Station+Road,+Albion+Park+Rail,+2527,+Australia"
8666,,14,Shearwater Boulevard,Albion Park Rail,2527,Shellharbour,"14 Shearwater Boulevard, Albion Park Rail, 2527, Australia",,,"https://www.google.com/maps/search/?api=1&query=14+Shearwater+Boulevard,+Albion+Park+Rail,+2527,+Australia"
8672,,287,Rusden Street,Armidale,2350,Armidale,"287 Rusden Street, Armidale, 2350, Australia",-30.509899349999998,151.64897080168114,"https://www.google.com/maps/search/?api=1&query=287+Rusden+Street,+Armidale,+2350,+Australia"
8678,,161,Markham Street,Armidale,2350,Armidale,"161 Markham Street, Armidale, 2350, Australia",-30.5177498,151.6572033731087,"https://www.google.com/maps/search/?api=1&query=161+Markham+Street,+Armidale,+2350,+Australia"
8684,,3,Glendower Close,Armidale,2350,Armidale,"3 Glendower Close, Armidale, 2350, Australia",-30.500820750000003,151.64776402781297,"https://www.google.com/maps/search/?api=1&query=3+Glendower+Close,+Armidale,+2350,+Australia"
8691,,77,Milton Street,Ashfield,2131,Inner West,"77 Milton Street, Ashfield, 2131, Australia",-33.8887888,151.1174101,"https://www.google.com/maps/search/?api=1&query=77+Milton+Street,+Ashfield,+2131,+Australia"
8697,,31,Hugh Street,Ashfield,2131,Inner West,"31 Hugh Street, Ashfield, 2131, Australia",-33.8898876,151.122447,"https://www.google.com/maps/search/?api=1&query=31+Hugh+Street,+Ashfield,+2131,+Australia"
8712,,11,Bolding Street,Ballina,2478,Ballina,"11 Bolding Street, Ballina, 2478, Australia",-28.8667913,153.5486082,"https://www.google.com/maps/search/?api=1&query=11+Bolding+Street,+Ballina,+2478,+Australia"
8718,,26,Burnet Street,Ballina,2478,Ballina,"26 Burnet Street, Ballina, 2478, Australia",-28.8681031,153.5669438106424,"https://www.google.com/maps/search/?api=1&query=26+Burnet+Street,+Ballina,+2478,+Australia"
8724,,50,Bass Street,Barrack Heights,2528,Shellharbour,"50 Bass Street, Barrack Heights, 2528, Australia",-34.5663285,150.8628278,"https://www.google.com/maps/search/?api=1&query=50+Bass+Street,+Barrack+Heights,+2528,+Australia"
8730,,42,The Kingsway St,Barrack Heights,2528,Shellharbour,"42 The Kingsway St, Barrack Heights, 2528, Australia",,,"https://www.google.com/maps/search/?api=1&query=42+The+Kingsway+St,+Barrack+Heights,+2528,+Australia"
8735,,64,Gladstone Street,Bellambi,2518,Wollongong,"64 Gladstone Street, Bellambi, 2518, Australia",-34.3669673,150.911754,"https://www.google.com/maps/search/?api=1&query=64+Gladstone+Street,+Bellambi,+2518,+Australia"
8741,,31-33,Massey Street,Berkeley,2506,Wollongong,"31-33 Massey Street, Berkeley, 2506, Australia",-34.4781903,150.8506795,"https://www.google.com/maps/search/?api=1&query=31-33+Massey+Street,+Berkeley,+2506,+Australia"
8747,1,1,George Street,Berkeley,2506,Wollongong,"1 George Street, Berkeley, 2506, Australia",-34.4816941,150.8549032,"https://www.google.com/maps/search/?api=1&query=1+George+Street,+Berkeley,+2506,+Australia"
8753,,1A,George Street,Berkeley,2506,Wollongong,"1A George Street, Berkeley, 2506, Australia",-34.4816941,150.8549032,"https://www.google.com/maps/search/?api=1&query=1A+George+Street,+Berkeley,+2506,+Australia"
8760,,8,Melaleuca Place,Bomaderry,2541,Shoalhaven,"8 Melaleuca Place, Bomaderry, 2541, Australia",-34.8415452,150.5970003,"https://www.google.com/maps/search/?api=1&query=8+Melaleuca+Place,+Bomaderry,+2541,+Australia"
8767,,34,Duke Street,Campsie,2194,Canterbury-Bankstown,"34 Duke Street, Campsie, 2194, Australia",-33.9122604,151.1068884,"https://www.google.com/maps/search/?api=1&query=34+Duke+Street,+Campsie,+2194,+Australia"
8773,,38,Shelley Street,Campsie,2194,Canterbury-Bankstown,"38 Shelley Street, Campsie, 2194, Australia",-33.9038814,151.1050424,"https://www.google.com/maps/search/?api=1&query=38+Shelley+Street,+Campsie,+2194,+Australia"
8785,,21,Edward Ogilvie Drive,Clarenza,2460,Clarence Valley,"21 Edward Ogilvie Drive, Clarenza, 2460, Australia",-29.7223531,152.9634939,"https://www.google.com/maps/search/?api=1&query=21+Edward+Ogilvie+Drive,+Clarenza,+2460,+Australia"
8792,,1331,Lismore Road,Clunes,2480,Lismore,"1331 Lismore Road, Clunes, 2480, Australia",-28.7195849,153.4329563,"https://www.google.com/maps/search/?api=1&query=1331+Lismore+Road,+Clunes,+2480,+Australia"
8798,,31,Murray Street,Croydon,2132,Burwood,"31 Murray Street, Croydon, 2132, Australia",-33.8837787,151.1103495,"https://www.google.com/maps/search/?api=1&query=31+Murray+Street,+Croydon,+2132,+Australia"
8803,,110,Thomas Street,Croydon,2132,Burwood,"110 Thomas Street, Croydon, 2132, Australia",-33.8845148,151.1145163,"https://www.google.com/maps/search/?api=1&query=110+Thomas+Street,+Croydon,+2132,+Australia"
8809,,15,Lang Street,Croydon,2132,Burwood,"15 Lang Street, Croydon, 2132, Australia",-33.8753279,151.1185031,"https://www.google.com/maps/search/?api=1&query=15+Lang+Street,+Croydon,+2132,+Australia"
8816,,74,Brighton Street,Croydon,2132,Burwood,"74 Brighton Street, Croydon, 2132, Australia",-33.888677,151.1103674,"https://www.google.com/maps/search/?api=1&query=74+Brighton+Street,+Croydon,+2132,+Australia"
8822,,1183,Jamberoo Road,Curramore,2533,Kiama,"1183 Jamberoo Road, Curramore, 2533, Australia",-34.6319385,150.7724729,"https://www.google.com/maps/search/?api=1&query=1183+Jamberoo+Road,+Curramore,+2533,+Australia"
8829,,5,Bedford Crescent,Dulwich Hill,2203,Inner West,"5 Bedford Crescent, Dulwich Hill, 2203, Australia",-33.9106285,151.1409997,"https://www.google.com/maps/search/?api=1&query=5+Bedford+Crescent,+Dulwich+Hill,+2203,+Australia"
8835,,67,William Street,Earlwood,2206,Canterbury-Bankstown,"67 William Street, Earlwood, 2206, Australia",-33.9268359,151.1203756,"https://www.google.com/maps/search/?api=1&query=67+William+Street,+Earlwood,+2206,+Australia"
8841,,26,Buckland Street,Fernhill,2519,Wollongong,"26 Buckland Street, Fernhill, 2519, Australia",-34.383267,150.8828667,"https://www.google.com/maps/search/?api=1&query=26+Buckland+Street,+Fernhill,+2519,+Australia"
8847,,22,Outlook Drive,Figtree,2525,Wollongong,"22 Outlook Drive, Figtree, 2525, Australia",-34.4356899,150.857351,"https://www.google.com/maps/search/?api=1&query=22+Outlook+Drive,+Figtree,+2525,+Australia"
8852,,9,Queens Road,Five Dock,2046,Canada Bay,"9 Queens Road, Five Dock, 2046, Australia",-33.8694813,151.1212628,"https://www.google.com/maps/search/?api=1&query=9+Queens+Road,+Five+Dock,+2046,+Australia"
8858,,61,South Street,Forster,2428,Mid-Coast,"61 South Street, Forster, 2428, Australia",-32.1888681,152.5129131,"https://www.google.com/maps/search/?api=1&query=61+South+Street,+Forster,+2428,+Australia"
8864,,7-9,Fig Tree Court,Forster,2428,Mid-Coast,"7-9 Fig Tree Court, Forster, 2428, Australia",-32.1949853,152.5132568,"https://www.google.com/maps/search/?api=1&query=7-9+Fig+Tree+Court,+Forster,+2428,+Australia"
8870,,453,Skyline Road,Goonellabah,2480,Goulburn Mulwaree,"453 Skyline Road, Goonellabah, 2480, Australia",-28.8341527,153.3228203,"https://www.google.com/maps/search/?api=1&query=453+Skyline+Road,+Goonellabah,+2480,+Australia"
8876,,20,Macquarie Street,Goulburn,2580,Goulburn Mulwaree,"20 Macquarie Street, Goulburn, 2580, Australia",-34.7445199,149.7041859,"https://www.google.com/maps/search/?api=1&query=20+Macquarie+Street,+Goulburn,+2580,+Australia"
8882,,18,Mitchell Street,Goulburn,2580,Goulburn Mulwaree,"18 Mitchell Street, Goulburn, 2580, Australia",-34.7288771,149.7016931,"https://www.google.com/maps/search/?api=1&query=18+Mitchell+Street,+Goulburn,+2580,+Australia"
8888,1,232,Range Road,Baw Baw,2580,Goulburn Mulwaree,"232 Range Road, Baw Baw, 2580, Australia",-34.7330855,149.6781589,"https://www.google.com/maps/search/?api=1&query=232+Range+Road,+Baw+Baw,+2580,+Australia"
8895,,8-10,Oakwood Avenue,Goulburn,2580,Goulburn Mulwaree,"8-10 Oakwood Avenue, Goulburn, 2580, Australia",-34.7309683,149.7189724,"https://www.google.com/maps/search/?api=1&query=8-10+Oakwood+Avenue,+Goulburn,+2580,+Australia"
8902,,2,Clyde Street,Goulburn,2580,Goulburn Mulwaree,"2 Clyde Street, Goulburn, 2580, Australia",-34.7414692,149.6977597,"https://www.google.com/maps/search/?api=1&query=2+Clyde+Street,+Goulburn,+2580,+Australia"
8908,1,1C,Rex Street,Goulburn,2580,Goulburn Mulwaree,"1C Rex Street, Goulburn, 2580, Australia",-34.7198151,149.7469854,"https://www.google.com/maps/search/?api=1&query=1C+Rex+Street,+Goulburn,+2580,+Australia"
8915,,6,Record Street,Goulburn,2580,Goulburn Mulwaree,"6 Record Street, Goulburn, 2580, Australia",-34.7256518,149.7409333,"https://www.google.com/maps/search/?api=1&query=6+Record+Street,+Goulburn,+2580,+Australia"
8921,,4,Jarmain Close,Gunnedah,2380,Gunnedah,"4 Jarmain Close, Gunnedah, 2380, Australia",-30.9936941,150.2362786,"https://www.google.com/maps/search/?api=1&query=4+Jarmain+Close,+Gunnedah,+2380,+Australia"
8927,,8,Smyth Close,Gunnedah,2380,Gunnedah,"8 Smyth Close, Gunnedah, 2380, Australia",-30.9986424,150.2406336,"https://www.google.com/maps/search/?api=1&query=8+Smyth+Close,+Gunnedah,+2380,+Australia"
8933,,6,Manikato Place,Kembla Grange,2526,Wollongong,"6 Manikato Place, Kembla Grange, 2526, Australia",-34.4718484,150.8257326,"https://www.google.com/maps/search/?api=1&query=6+Manikato+Place,+Kembla+Grange,+2526,+Australia"
8943,,18,Barrys Road,Modanville,2480,Lismore,"18 Barrys Road, Modanville, 2480, Australia",,,"https://www.google.com/maps/search/?api=1&query=18+Barrys+Road,+Modanville,+2480,+Australia"
8950,,8-10,Aristo Crescent,Mount Ousley,2519,Wollongong,"8-10 Aristo Crescent, Mount Ousley, 2519, Australia",-34.4037911,150.887522,"https://www.google.com/maps/search/?api=1&query=8-10+Aristo+Crescent,+Mount+Ousley,+2519,+Australia"
8956,,87,Station Street,Mullumbimby,2482,Byron,"87 Station Street, Mullumbimby, 2482, Australia",-28.550287,153.5028758,"https://www.google.com/maps/search/?api=1&query=87+Station+Street,+Mullumbimby,+2482,+Australia"
8962,,19,Burigal Street,Narrabri,2390,Narrabri,"19 Burigal Street, Narrabri, 2390, Australia",-30.3360565,149.754866,"https://www.google.com/maps/search/?api=1&query=19+Burigal+Street,+Narrabri,+2390,+Australia"
8976,,59,Wallace Street,Nowra,2541,Shoalhaven,"59 Wallace Street, Nowra, 2541, Australia",-34.8872616,150.6079214,"https://www.google.com/maps/search/?api=1&query=59+Wallace+Street,+Nowra,+2541,+Australia"
8982,,103,Berry Street,Nowra,2541,Shoalhaven,"103 Berry Street, Nowra, 2541, Australia",-34.8764409,150.6001729,"https://www.google.com/maps/search/?api=1&query=103+Berry+Street,+Nowra,+2541,+Australia"
8988,,192,Albatross Road,Nowra Hill,2540,Shoalhaven,"192 Albatross Road, Nowra Hill, 2540, Australia",-34.9331349,150.5560902,"https://www.google.com/maps/search/?api=1&query=192+Albatross+Road,+Nowra+Hill,+2540,+Australia"
8995,,38,Uranus Road,Padstow,2211,Canterbury-Bankstown,"38 Uranus Road, Padstow, 2211, Australia",-33.9562088,151.0224355,"https://www.google.com/maps/search/?api=1&query=38+Uranus+Road,+Padstow,+2211,+Australia"
9013,,8,Rose Street,Punchbowl,2196,Canterbury-Bankstown,"8 Rose Street, Punchbowl, 2196, Australia",-33.9295211,151.0496959,"https://www.google.com/maps/search/?api=1&query=8+Rose+Street,+Punchbowl,+2196,+Australia"
9019,,33-35,Donald Road,Queanbeyan,2620,Queanbeyan-Palerang,"33-35 Donald Road, Queanbeyan, 2620, Australia",-35.3689294,149.2229831,"https://www.google.com/maps/search/?api=1&query=33-35+Donald+Road,+Queanbeyan,+2620,+Australia"
9026,,26,Charles Street,Queanbeyan,2620,Queanbeyan-Palerang,"26 Charles Street, Queanbeyan, 2620, Australia",-35.3600878,149.2276572,"https://www.google.com/maps/search/?api=1&query=26+Charles+Street,+Queanbeyan,+2620,+Australia"
9032,,32,Elizabeth Crescent,Queanbeyan East,2620,Queanbeyan-Palerang,"32 Elizabeth Crescent, Queanbeyan East, 2620, Australia",-35.3459709,149.2502501,"https://www.google.com/maps/search/?api=1&query=32+Elizabeth+Crescent,+Queanbeyan+East,+2620,+Australia"
9038,,49,Dewhurst Street,Quirindi,2343,Liverpool Plains,"49 Dewhurst Street, Quirindi, 2343, Australia",-31.5096233,150.6878858,"https://www.google.com/maps/search/?api=1&query=49+Dewhurst+Street,+Quirindi,+2343,+Australia"
9044,,1237,Kamilaroi Highway,Quirindi,2343,Liverpool Plains,"1237 Kamilaroi Highway, Quirindi, 2343, Australia",-31.4666346,150.6199856,"https://www.google.com/maps/search/?api=1&query=1237+Kamilaroi+Highway,+Quirindi,+2343,+Australia"
9050,,29,Primrose Avenue,Rosebery,2018,Sydney,"29 Primrose Avenue, Rosebery, 2018, Australia",-33.9166975,151.2056272,"https://www.google.com/maps/search/?api=1&query=29+Primrose+Avenue,+Rosebery,+2018,+Australia"
9056,,17,Remly Street,Roselands,2196,Canterbury-Bankstown,"17 Remly Street, Roselands, 2196, Australia",-33.92954,151.0809715,"https://www.google.com/maps/search/?api=1&query=17+Remly+Street,+Roselands,+2196,+Australia"
9062,,3,Hillview Street,Roselands,2196,Canterbury-Bankstown,"3 Hillview Street, Roselands, 2196, Australia",-33.9269671,151.0834387,"https://www.google.com/maps/search/?api=1&query=3+Hillview+Street,+Roselands,+2196,+Australia"
9068,,14,Bladwell Place,Run-o-waters,2580,Goulburn Mulwaree,"14 Bladwell Place, Run-o-waters, 2580, Australia",,,"https://www.google.com/maps/search/?api=1&query=14+Bladwell+Place,+Run-o-waters,+2580,+Australia"
9073,,14,Hicks Street,Russell Vale,2517,Wollongong,"14 Hicks Street, Russell Vale, 2517, Australia",-34.3567257,150.8987874,"https://www.google.com/maps/search/?api=1&query=14+Hicks+Street,+Russell+Vale,+2517,+Australia"
9079,,23-25,Links Avenue,South Tamworth,2340,Tamworth,"23-25 Links Avenue, South Tamworth, 2340, Australia",-31.1049502,150.9080038,"https://www.google.com/maps/search/?api=1&query=23-25+Links+Avenue,+South+Tamworth,+2340,+Australia"
9085,,14,Hydebrae Street,Strathfield,2135,Strathfield,"14 Hydebrae Street, Strathfield, 2135, Australia",-33.8732766,151.0758219,"https://www.google.com/maps/search/?api=1&query=14+Hydebrae+Street,+Strathfield,+2135,+Australia"
9091,,31,Prospect Road,Summer Hill,2130,Inner West,"31 Prospect Road, Summer Hill, 2130, Australia",-33.8924877,151.13212922169362,"https://www.google.com/maps/search/?api=1&query=31+Prospect+Road,+Summer+Hill,+2130,+Australia"
9097,,11,Wahroonga Drive,Tamworth,2340,Tamworth,"11 Wahroonga Drive, Tamworth, 2340, Australia",-31.1215413,150.9063173,"https://www.google.com/maps/search/?api=1&query=11+Wahroonga+Drive,+Tamworth,+2340,+Australia"
9103,,7,Emerald Avenue,Tamworth,2340,Tamworth,"7 Emerald Avenue, Tamworth, 2340, Australia",-31.0997067,150.9446037,"https://www.google.com/maps/search/?api=1&query=7+Emerald+Avenue,+Tamworth,+2340,+Australia"
9109,,4,Cannell Crescent,Towradgi,2518,Wollongong,"4 Cannell Crescent, Towradgi, 2518, Australia",-34.3864802,150.9018899,"https://www.google.com/maps/search/?api=1&query=4+Cannell+Crescent,+Towradgi,+2518,+Australia"
9115,,60,Royal Mantle Drive,Ulladulla,2539,Shoalhaven,"60 Royal Mantle Drive, Ulladulla, 2539, Australia",-35.3416474,150.4581218,"https://www.google.com/maps/search/?api=1&query=60+Royal+Mantle+Drive,+Ulladulla,+2539,+Australia"
9128,,21,Asteria Street,Worrigee,2540,Shoalhaven,"21 Asteria Street, Worrigee, 2540, Australia",-34.8998179,150.6199773,"https://www.google.com/maps/search/?api=1&query=21+Asteria+Street,+Worrigee,+2540,+Australia"
9140,1,15,Bellevue Street,Figtree,2525,Wollongong,"15 Bellevue Street, Figtree, 2525, Australia",,,"https://www.google.com/maps/search/?api=1&query=15+Bellevue+Street,+Figtree,+2525,+Australia"
9169,,14B,Ralston Drive,Orange,2800,Orange,"14B Ralston Drive, Orange, 2800, Australia",-33.2448486,149.106349,"https://www.google.com/maps/search/?api=1&query=14B+Ralston+Drive,+Orange,+2800,+Australia"
9175,,22a,Rifle Range Road,Orange,2800,Orange,"22a Rifle Range Road, Orange, 2800, Australia",-33.306991,149.0849702,"https://www.google.com/maps/search/?api=1&query=22a+Rifle+Range+Road,+Orange,+2800,+Australia"
9181,,22B,Rifle Range Road,Orange,2800,Orange,"22B Rifle Range Road, Orange, 2800, Australia",-33.306991,149.0849702,"https://www.google.com/maps/search/?api=1&query=22B+Rifle+Range+Road,+Orange,+2800,+Australia"
9196,,31,Cleveland Street,Cameron Park,2285,Lake Macquarie,"31 Cleveland Street, Cameron Park, 2285, Australia",-32.920362,151.6038066,"https://www.google.com/maps/search/?api=1&query=31+Cleveland+Street,+Cameron+Park,+2285,+Australia"
9282,1,29,Tannery Street,Unanderra,2526,Wollongong,"29 Tannery Street, Unanderra, 2526, Australia",-34.4541849,150.8433488,"https://www.google.com/maps/search/?api=1&query=29+Tannery+Street,+Unanderra,+2526,+Australia"
9325,,30,Scenic Drive,Budgewoi,2262,Central Coast (NSW),"30 Scenic Drive, Budgewoi, 2262, Australia",-33.2321439,151.5475115,"https://www.google.com/maps/search/?api=1&query=30+Scenic+Drive,+Budgewoi,+2262,+Australia"
9674,,31,Mountain View Drive,Woongarrah,2259,Central Coast (NSW),"31 Mountain View Drive, Woongarrah, 2259, Australia",-33.2492973,151.4829496,"https://www.google.com/maps/search/?api=1&query=31+Mountain+View+Drive,+Woongarrah,+2259,+Australia"
9685,,41,Ashton Drive,Heddon Greta,2321,Maitland,"41 Ashton Drive, Heddon Greta, 2321, Australia",-32.7986481,151.5145037,"https://www.google.com/maps/search/?api=1&query=41+Ashton+Drive,+Heddon+Greta,+2321,+Australia"
9686,,5,Glen Close,Heddon Greta,2321,Maitland,"5 Glen Close, Heddon Greta, 2321, Australia",-32.794601,151.5153802,"https://www.google.com/maps/search/?api=1&query=5+Glen+Close,+Heddon+Greta,+2321,+Australia"
9701,,33,Burdekin Drive,Albion Park,2527,Shellharbour,"33 Burdekin Drive, Albion Park, 2527, Australia",-34.5874299,150.7859174,"https://www.google.com/maps/search/?api=1&query=33+Burdekin+Drive,+Albion+Park,+2527,+Australia"
9707,,99,Burdekin Drive,Albion Park,2527,Shellharbour,"99 Burdekin Drive, Albion Park, 2527, Australia",-34.5874299,150.7859174,"https://www.google.com/maps/search/?api=1&query=99+Burdekin+Drive,+Albion+Park,+2527,+Australia"
9712,,19,Darling Mills Road,Albion Park,2527,Shellharbour,"19 Darling Mills Road, Albion Park, 2527, Australia",-34.5905839,150.7852116,"https://www.google.com/maps/search/?api=1&query=19+Darling+Mills+Road,+Albion+Park,+2527,+Australia"
9730,,41,Scarborough Circuit,Albion Park,2527,Shellharbour,"41 Scarborough Circuit, Albion Park, 2527, Australia",-34.57678,150.7715638,"https://www.google.com/maps/search/?api=1&query=41+Scarborough+Circuit,+Albion+Park,+2527,+Australia"
9814,,4,Spring Valley Avenue,Gorokan,2263,Central Coast (NSW),"4 Spring Valley Avenue, Gorokan, 2263, Australia",-33.2488264,151.5096665,"https://www.google.com/maps/search/?api=1&query=4+Spring+Valley+Avenue,+Gorokan,+2263,+Australia"
9873,,36,Bernice Crescent,Waratah,2298,Newcastle,"36 Bernice Crescent, Waratah, 2298, Australia",-32.9018005,151.7075083,"https://www.google.com/maps/search/?api=1&query=36+Bernice+Crescent,+Waratah,+2298,+Australia"
9879,,17,Auburn Street,Gillieston Heights,2321,Cessnock,"17 Auburn Street, Gillieston Heights, 2321, Australia",-32.7674732,151.5243401,"https://www.google.com/maps/search/?api=1&query=17+Auburn+Street,+Gillieston+Heights,+2321,+Australia"
9942,,1A,Lindley Street,Edgeworth,2285,Lake Macquarie,"1A Lindley Street, Edgeworth, 2285, Australia",-32.9249968,151.6314691,"https://www.google.com/maps/search/?api=1&query=1A+Lindley+Street,+Edgeworth,+2285,+Australia"
9959,,31,Common Road,Bendolba,2420,Dungog,"31 Common Road, Bendolba, 2420, Australia",-32.3971418,151.7439834,"https://www.google.com/maps/search/?api=1&query=31+Common+Road,+Bendolba,+2420,+Australia"
9964,,33,Alkira Avenue,Cessnock,2325,Cessnock,"33 Alkira Avenue, Cessnock, 2325, Australia",-32.8209644,151.3712994,"https://www.google.com/maps/search/?api=1&query=33+Alkira+Avenue,+Cessnock,+2325,+Australia"
9969,,22,Alkira Avenue,Cessnock,2325,Cessnock,"22 Alkira Avenue, Cessnock, 2325, Australia",-32.8209644,151.3712994,"https://www.google.com/maps/search/?api=1&query=22+Alkira+Avenue,+Cessnock,+2325,+Australia"
9981,,23,Wermol Street,Kurri Kurri,2327,Cessnock,"23 Wermol Street, Kurri Kurri, 2327, Australia",-32.8124829,151.47654,"https://www.google.com/maps/search/?api=1&query=23+Wermol+Street,+Kurri+Kurri,+2327,+Australia"
Q6545,,24,Crozier Crescent,Meadowbrook,4131,Logan,"24 Crozier Crescent, Meadowbrook, 4131, Australia",-27.6695588,153.1489125,"https://www.google.com/maps/search/?api=1&query=24+Crozier+Crescent,+Meadowbrook,+4131,+Australia"
Q6546,,5,Demarr Court,Meadowbrook,4131,Logan,"5 Demarr Court, Meadowbrook, 4131, Australia",-27.6713231,153.1524018,"https://www.google.com/maps/search/?api=1&query=5+Demarr+Court,+Meadowbrook,+4131,+Australia"
Q6548,,58,Kilsay Crescent,Meadowbrook,4131,Logan,"58 Kilsay Crescent, Meadowbrook, 4131, Australia",-27.6674066,153.1484163,"https://www.google.com/maps/search/?api=1&query=58+Kilsay+Crescent,+Meadowbrook,+4131,+Australia"
Q6571,,12,Petringa Crescent,Springwood,4127,Logan,"12 Petringa Crescent, Springwood, 4127, Australia",-27.633848,153.1453266,"https://www.google.com/maps/search/?api=1&query=12+Petringa+Crescent,+Springwood,+4127,+Australia"
Q7290,,217,Tilley Road,Wakerley,4154,Brisbane,"217 Tilley Road, Wakerley, 4154, Australia",-27.4875076,153.1546429,"https://www.google.com/maps/search/?api=1&query=217+Tilley+Road,+Wakerley,+4154,+Australia"
Q7300,,91,Besline Street,Kuraby,4112,Brisbane,"91 Besline Street, Kuraby, 4112, Australia",-27.6007335,153.0960049,"https://www.google.com/maps/search/?api=1&query=91+Besline+Street,+Kuraby,+4112,+Australia"
Q7301,,83,Meadowlands Street,Carindale,4152,Brisbane,"83 Meadowlands Street, Carindale, 4152, Australia",,,"https://www.google.com/maps/search/?api=1&query=83+Meadowlands+Street,+Carindale,+4152,+Australia"
Q7306,,38,Vintage Drive,Thornlands,4164,Redland,"38 Vintage Drive, Thornlands, 4164, Australia",-27.5605389,153.2645425,"https://www.google.com/maps/search/?api=1&query=38+Vintage+Drive,+Thornlands,+4164,+Australia"
Q7307,,1,Portland Parade,Redland Bay,4165,Redland,"1 Portland Parade, Redland Bay, 4165, Australia",-27.6250777,153.2906467,"https://www.google.com/maps/search/?api=1&query=1+Portland+Parade,+Redland+Bay,+4165,+Australia"
Q7308,,14,Verdelho Street,Thornlands,4164,Redland,"14 Verdelho Street, Thornlands, 4164, Australia",-27.5576952,153.2630091,"https://www.google.com/maps/search/?api=1&query=14+Verdelho+Street,+Thornlands,+4164,+Australia"
Q7309,,26,Donfern Street,Mount Gravatt,4122,Brisbane,"26 Donfern Street, Mount Gravatt, 4122, Australia",-27.5377323,153.0678713,"https://www.google.com/maps/search/?api=1&query=26+Donfern+Street,+Mount+Gravatt,+4122,+Australia"
Q7310,,11,Ancilla Street,Mansfield,4122,Brisbane,"11 Ancilla Street, Mansfield, 4122, Australia",-27.537946,153.0990487,"https://www.google.com/maps/search/?api=1&query=11+Ancilla+Street,+Mansfield,+4122,+Australia"
Q7345,,28,Collinson Street,Runcorn,4113,Brisbane,"28 Collinson Street, Runcorn, 4113, Australia",-27.6059031,153.0733377,"https://www.google.com/maps/search/?api=1&query=28+Collinson+Street,+Runcorn,+4113,+Australia"
Q7397,,125,Morden Road,Sunnybank Hills,4109,Brisbane,"125 Morden Road, Sunnybank Hills, 4109, Australia",-27.5816067,153.0395387,"https://www.google.com/maps/search/?api=1&query=125+Morden+Road,+Sunnybank+Hills,+4109,+Australia"
Q7399,,4,Mulgowie Street,Sunnybank Hills,4109,Brisbane,"4 Mulgowie Street, Sunnybank Hills, 4109, Australia",,,"https://www.google.com/maps/search/?api=1&query=4+Mulgowie+Street,+Sunnybank+Hills,+4109,+Australia"
Q7424,,34,Prospect Terrace,Highgate Hill,4101,Brisbane,"34 Prospect Terrace, Highgate Hill, 4101, Australia",-27.4851083,153.022334,"https://www.google.com/maps/search/?api=1&query=34+Prospect+Terrace,+Highgate+Hill,+4101,+Australia"
Q7427,,10,Penelope Street,Murarrie,4172,Brisbane,"10 Penelope Street, Murarrie, 4172, Australia",-27.456932,153.1032525,"https://www.google.com/maps/search/?api=1&query=10+Penelope+Street,+Murarrie,+4172,+Australia"
Q7472,,29,Vaughan Street,Mount Gravatt,4122,Brisbane,"29 Vaughan Street, Mount Gravatt, 4122, Australia",-27.5334988,153.0691331,"https://www.google.com/maps/search/?api=1&query=29+Vaughan+Street,+Mount+Gravatt,+4122,+Australia"
Q7871,,29,Samara Street,Sunnybank,4109,Brisbane,"29 Samara Street, Sunnybank, 4109, Australia",-27.5780218,153.0732685,"https://www.google.com/maps/search/?api=1&query=29+Samara+Street,+Sunnybank,+4109,+Australia"
Q7880,,52,Thurlby Street,Upper Mount Gravatt,4122,Brisbane,"52 Thurlby Street, Upper Mount Gravatt, 4122, Australia",-27.5532266,153.089874,"https://www.google.com/maps/search/?api=1&query=52+Thurlby+Street,+Upper+Mount+Gravatt,+4122,+Australia"
Q7891,,9,Adsett Street,Taringa,4068,Brisbane,"9 Adsett Street, Taringa, 4068, Australia",-27.49324155,152.98285686264404,"https://www.google.com/maps/search/?api=1&query=9+Adsett+Street,+Taringa,+4068,+Australia"
Q7893,,3,Chapman Street,Oxley,4075,Brisbane,"3 Chapman Street, Oxley, 4075, Australia",,,"https://www.google.com/maps/search/?api=1&query=3+Chapman+Street,+Oxley,+4075,+Australia"
Q7928,,38,Mowbray Terrace,East Brisbane,4169,Brisbane,"38 Mowbray Terrace, East Brisbane, 4169, Australia",-27.4832533,153.0435469,"https://www.google.com/maps/search/?api=1&query=38+Mowbray+Terrace,+East+Brisbane,+4169,+Australia"
Q7943,,21,Pine Drive,Woodridge,4114,Logan,"21 Pine Drive, Woodridge, 4114, Australia",-27.6383776,153.0999617,"https://www.google.com/maps/search/?api=1&query=21+Pine+Drive,+Woodridge,+4114,+Australia"
Q7945,,37,Samara Street,Sunnybank,4109,Brisbane,"37 Samara Street, Sunnybank, 4109, Australia",-27.5781103,153.0738772,"https://www.google.com/maps/search/?api=1&query=37+Samara+Street,+Sunnybank,+4109,+Australia"
Q7960,,78,Marshall Road,Rocklea,4106,Brisbane,"78 Marshall Road, Rocklea, 4106, Australia",-27.5562374,153.0165211,"https://www.google.com/maps/search/?api=1&query=78+Marshall+Road,+Rocklea,+4106,+Australia"
Q8011,,81,Gainsborough Street,Moorooka,4105,Brisbane,"81 Gainsborough Street, Moorooka, 4105, Australia",-27.5345786,153.0180373,"https://www.google.com/maps/search/?api=1&query=81+Gainsborough+Street,+Moorooka,+4105,+Australia"
Q8595,,15,Justin Place,Crestmead,4132,Logan,"15 Justin Place, Crestmead, 4132, Australia",-27.6989184,153.0919278,"https://www.google.com/maps/search/?api=1&query=15+Justin+Place,+Crestmead,+4132,+Australia"
Q8627,,7,Farrar Street,Acacia Ridge,4110,Brisbane,"7 Farrar Street, Acacia Ridge, 4110, Australia",-27.5915448,153.0224551,"https://www.google.com/maps/search/?api=1&query=7+Farrar+Street,+Acacia+Ridge,+4110,+Australia"
Q8657,,479,Warrigal Road,Eight Mile Plains,4113,Brisbane,"479 Warrigal Road, Eight Mile Plains, 4113, Australia",-27.5798508,153.0871121,"https://www.google.com/maps/search/?api=1&query=479+Warrigal+Road,+Eight+Mile+Plains,+4113,+Australia"
Q8660,,9,Feluga Street,Shailer Park,4128,Logan,"9 Feluga Street, Shailer Park, 4128, Australia",-27.6606901,153.1753137975477,"https://www.google.com/maps/search/?api=1&query=9+Feluga+Street,+Shailer+Park,+4128,+Australia"
Q8661,,49,Archer Street,Upper Mount Gravatt,4122,Brisbane,"49 Archer Street, Upper Mount Gravatt, 4122, Australia",-27.555319,153.0826888,"https://www.google.com/maps/search/?api=1&query=49+Archer+Street,+Upper+Mount+Gravatt,+4122,+Australia"
Q8924,,16,Donna Avenue,Rochedale South,4123,Logan,"16 Donna Avenue, Rochedale South, 4123, Australia",-27.6056497,153.1268655,"https://www.google.com/maps/search/?api=1&query=16+Donna+Avenue,+Rochedale+South,+4123,+Australia"
